programname,county,name,address,city,state,zip,phone,contact
Cheyenne & Arapaho Tribes of Oklahoma,Custer County,Clinton HS & C C Facility,10333 N 2274 Rd,Clinton,OK,73601-7521,(580) 323-1748,10333 N 2274 Rd Clinton OK 73601-7521 (580) 323-1748
Cheyenne & Arapaho Tribes of Oklahoma,Blaine County,Canton,301 1/2 Lake Road,Canton,OK,73724,(580) 886-2815,301 1/2 Lake Road Canton OK 73724 (580) 886-2815
Cheyenne & Arapaho Tribes of Oklahoma,Canadian County,Concho,601 North Lefthand Avenue,Concho,OK,73022,(405) 422-7647,601 North Lefthand Avenue Concho OK 73022 (405) 422-7647
Northeast Oklahoma Community Action Agency,Delaware County,Northeast Oklahoma Community Action Early Head Start Program,1015 S Main St,Jay,OK,74346-3861,(918) 253-4683,1015 S Main St Jay OK 74346-3861 (918) 253-4683
Osage Nation,Osage County,Fairfax,1000 West McKinley,Fairfax,OK,74637,(918) 287-5601,1000 West McKinley Fairfax OK 74637 (918) 287-5601
Osage Nation,Osage County,Pawhuska,P O 1389,Pawhuska,OK,74056,(918) 287-5460,P O 1389 Pawhuska OK 74056 (918) 287-5460
Osage Nation,Osage County,Skiatook,"1801 W Oak St
Skiatook",Skiatook,OK,74070-4244,(918) 287-5471,"1801 W Oak St
Skiatook Skiatook OK 74070-4244 (918) 287-5471"
Osage Nation,Osage County,Hominy,102 Buffalo Ave,Hominy,OK,74035-6784,(918) 287-5648,102 Buffalo Ave Hominy OK 74035-6784 (918) 287-5648
Grand Head Start (Jay Public Schools),Delaware County,Colcord Head Start,400 South Spencer Street,Colcord,OK,74338,(918) 326-4117,400 South Spencer Street Colcord OK 74338 (918) 326-4117
Grand Head Start (Jay Public Schools),Ottawa County,Commerce Head Start,124 N Vine St,Commerce,OK,74339-1429,(918) 675-5556,124 N Vine St Commerce OK 74339-1429 (918) 675-5556
Grand Head Start (Jay Public Schools),Delaware County,Grove Head Start,802A W 7th St,Grove,OK,74344-3524,(918) 786-3119,802A W 7th St Grove OK 74344-3524 (918) 786-3119
Grand Head Start (Jay Public Schools),Delaware County,Jay Head Start,1104 W Washbourne,Jay,OK,74346,(918) 253-8285,1104 W Washbourne Jay OK 74346 (918) 253-8285
Grand Head Start (Jay Public Schools),Delaware County,Jay Elementary Head Start,403 N Main St,Jay,OK,74346,(918) 253-4413,403 N Main St Jay OK 74346 (918) 253-4413
Grand Head Start (Jay Public Schools),Ottawa County,Miami Head Start,1530 H St NW,Miami,OK,74354-1747,(918) 542-9642,1530 H St NW Miami OK 74354-1747 (918) 542-9642
Grand Head Start (Jay Public Schools),Ottawa County,Quapaw Head Start,310 McDonald Ave,Quapaw,OK,74363,(918) 674-2700,310 McDonald Ave Quapaw OK 74363 (918) 674-2700
Grand Head Start (Jay Public Schools),Craig County,Vinita Head Start,302 S 2nd St,Vinita,OK,74301-4212,(918) 256-7296,302 S 2nd St Vinita OK 74301-4212 (918) 256-7296
Grand Head Start (Jay Public Schools),Delaware County,Kansas Head Start,275 W Main St,Kansas,OK,74347-4700,(918) 256-7296,275 W Main St Kansas OK 74347-4700 (918) 256-7296
Native American Coalition of Tulsa,Tulsa County,NACT Mark Twain,541 S 43rd West Ave,Tulsa,OK,74127-7740,(918) 833-8820,541 S 43rd West Ave Tulsa OK 74127-7740 (918) 833-8820
Native American Coalition of Tulsa,Tulsa County,NACT Head Start West Campus,4935 S Union Ave,Tulsa,OK,74107-7839,(918) 446-7939,4935 S Union Ave Tulsa OK 74107-7839 (918) 446-7939
Native American Coalition of Tulsa,Tulsa County,NACT Head Start Glenpool,14100 S Hickory St,Glenpool,OK,74033-3634,(918) 321-2649,14100 S Hickory St Glenpool OK 74033-3634 (918) 321-2649
Native American Coalition of Tulsa,Tulsa County,NACT Head Start  Campus 97,5550 S Highway 97,Sand Springs,OK,74063-3711,(918) 514-4327,5550 S Highway 97 Sand Springs OK 74063-3711 (918) 514-4327
Muscogee (Creek) Nation,McIntosh County,Eufaula,320 Swadley Dr,Eufaula,OK,74432-2229,(918) 618-6220,320 Swadley Dr Eufaula OK 74432-2229 (918) 618-6220
Muscogee (Creek) Nation,Hughes County,Wetumka,333 S Washita St,Wetumka,OK,74883-5522,(405) 452-1180,333 S Washita St Wetumka OK 74883-5522 (405) 452-1180
Muscogee (Creek) Nation,Okmulgee County,Okmulgee,1810 N Miami Street,Okmulgee,OK,74447,(918) 758-1430,1810 N Miami Street Okmulgee OK 74447 (918) 758-1430
Muscogee (Creek) Nation,Tulsa County,Tulsa,8601 S Union Ave,Tulsa,OK,74132-3609,(918) 296-0357,8601 S Union Ave Tulsa OK 74132-3609 (918) 296-0357
Muscogee (Creek) Nation,McIntosh County,Checotah,302 B St,Checotah,OK,74426-5226,(918) 473-0605,302 B St Checotah OK 74426-5226 (918) 473-0605
Muscogee (Creek) Nation,Okfuskee County,Okemah,103 Hiyak PO St,Okemah,OK,74859-4804,(918) 623-2000,103 Hiyak PO St Okemah OK 74859-4804 (918) 623-2000
Muscogee (Creek) Nation,McIntosh County,Midway Public School Collaboration,3016 S Pine,Council Hill,OK,74428,(918) 474-3434,3016 S Pine Council Hill OK 74428 (918) 474-3434
Muscogee (Creek) Nation,Muskogee County,Wainwright Public School,1 School Street,Wainwright,OK,74468,(918) 474-3484,1 School Street Wainwright OK 74468 (918) 474-3484
Muscogee (Creek) Nation,Okmulgee County,Dewar Public School Collaboration,204 W 5th Street,Dewar,OK,74431-0780,(918) 652-9625,204 W 5th Street Dewar OK 74431-0780 (918) 652-9625
Tulsa Educare,Tulsa County,Educare I-Kendall Whittier,2511 E 5th Pl,Tulsa,OK,74104-2804,(918) 779-6233,2511 E 5th Pl Tulsa OK 74104-2804 (918) 779-6233
Kiowa Tribe,Caddo County,Little Rabbits Head Start Center,1602 American St,Anadarko,OK,73005-2314,(405) 247-3740,1602 American St Anadarko OK 73005-2314 (405) 247-3740
Kiowa Tribe,Caddo County,Kiowa Tribe Head Start-Carnegie Center,"Hwy 9 W.
100 Kiowa Way",Carnegie,OK,73015,(580) 654-6391,"Hwy 9 W.
100 Kiowa Way Carnegie OK 73015 (580) 654-6391"
Kiowa Tribe,Comanche County,KCA Head Start Center,1401 NE Lawrie Tatum Rd,Lawton,OK,73507-3008,(580) 354-1412,1401 NE Lawrie Tatum Rd Lawton OK 73507-3008 (580) 354-1412
Kiowa Tribe,Caddo County,Caddo-Kiowa Technology Center,1415 N 7th,Fort Cobb,OK,73038,(405) 643-3248,1415 N 7th Fort Cobb OK 73038 (405) 643-3248
INCA Community Services,Marshall County,Kingston Head Start,"100 NE 4th St
Kingston Public School",Kingston,OK,73439-1139,(1) 580-564,"100 NE 4th St
Kingston Public School Kingston OK 73439-1139 (1) 580-564"
INCA Community Services,Johnston County,WAPANUCKA HEAD START,502 S Choctaw Ave,Wapanucka,OK,73461-9235,(1) 580-937,502 S Choctaw Ave Wapanucka OK 73461-9235 (1) 580-937
INCA Community Services,Marshall County,MADILL #1,211 N 2nd St,Madill,OK,73446-2207,(1) 580-795,211 N 2nd St Madill OK 73446-2207 (1) 580-795
INCA Community Services,Murray County,Sulphur HEAD START,1220 W 9th St,Sulphur,OK,73086-3612,(1) 580-622,1220 W 9th St Sulphur OK 73086-3612 (1) 580-622
INCA Community Services,Atoka County,Caney Head Start,"301 N Cobb Ave
402 N Perkins",Caney,OK,74533,(1) 580-889,"301 N Cobb Ave
402 N Perkins Caney OK 74533 (1) 580-889"
INCA Community Services,Johnston County,MILL CREEK HEAD START,"P. O. 201
603 South Choctaw",Mill Creek,OK,74856,(1) 580-384,"P. O. 201
603 South Choctaw Mill Creek OK 74856 (1) 580-384"
INCA Community Services,Johnston County,Milburn Head Start,200 N 7th St,Milburn,OK,73450-9645,(1) 580-5487,200 N 7th St Milburn OK 73450-9645 (1) 580-5487
INCA Community Services,Johnston County,TISHOMINGO HEAD START,304 W 7th St,Tishomingo,OK,73460-1209,(1) 580-371,304 W 7th St Tishomingo OK 73460-1209 (1) 580-371
INCA Community Services,Marshall County,Kingston Head Start,100 NE 4th St,Kingston,OK,73439-1139,(1) 580-564,100 NE 4th St Kingston OK 73439-1139 (1) 580-564
INCA Community Services,Murray County,Davis Head Start,"701 East Benton
701 East Benton",Davis,OK,73030-1964,(1) 580-369,"701 East Benton
701 East Benton Davis OK 73030-1964 (1) 580-369"
INCA Community Services,Atoka County,Atoka Head Start,301 W 10th St,Atoka,OK,74525-2800,(1) 580-889,301 W 10th St Atoka OK 74525-2800 (1) 580-889
INCA Community Services,Marshall County,Oakland Head Start,"18985 8th St
Highway 70",Madill,OK,73446-2155,(1) 580-677,"18985 8th St
Highway 70 Madill OK 73446-2155 (1) 580-677"
INCA Community Services,Marshall County,Oakland,18941 8th St,Madill,OK,73446-2155,(580) 677-9444,18941 8th St Madill OK 73446-2155 (580) 677-9444
INCA Community Services,Johnston County,Mannsville INCA Head Start,509 East School Street,Mannsville,OK,73447,(580) 371-2892,509 East School Street Mannsville OK 73447 (580) 371-2892
Seminole Nation of Oklahoma,Seminole County,Mekusukey Mission Center,12572 NS 354,Seminole,OK,74868,(405) 382-6126,12572 NS 354 Seminole OK 74868 (405) 382-6126
Seminole Nation of Oklahoma,Seminole County,Barking Water Center,Intersection Hwy 56 & Hwy 270,Wewoka,OK,74884,(405) 257-7220,Intersection Hwy 56 & Hwy 270 Wewoka OK 74884 (405) 257-7220
Seminole Nation of Oklahoma,Seminole County,Konawa Center,Intersection Hwy 39 & Hwy 99,Konawa,OK,74849,(580) 925-5750,Intersection Hwy 39 & Hwy 99 Konawa OK 74849 (580) 925-5750
Seminole Nation of Oklahoma,Seminole County,Mekusukey Mission Center,12572 NS 354,Seminole,OK,74868,(405) 382-6126,12572 NS 354 Seminole OK 74868 (405) 382-6126
Seminole Nation of Oklahoma,Seminole County,Konawa Center,Intersection Hwy 39 & Hwy 99,Konawa,OK,74849,(580) 925-5750,Intersection Hwy 39 & Hwy 99 Konawa OK 74849 (580) 925-5750
Seminole Nation of Oklahoma,Seminole County,Barking Water Center,Intersection Hwy 56 & Hwy 270,Wewoka,OK,74884,(405) 257-7220,Intersection Hwy 56 & Hwy 270 Wewoka OK 74884 (405) 257-7220
Seminole Nation of Oklahoma,Seminole County,Mekusukey Mission Admin,12566 NS 354,Seminole,OK,74868,(405) 382-4186,12566 NS 354 Seminole OK 74868 (405) 382-4186
Washita Valley Community Action Council,Caddo County,Lookeba,307 W Sickles Ave,Lookeba,OK,73053-9620,(405) 457-6493,307 W Sickles Ave Lookeba OK 73053-9620 (405) 457-6493
Washita Valley Community Action Council,Caddo County,Apache,"Apache Elementary School
South Forrest",Apache,OK,73006,(580) 588-2270,"Apache Elementary School
South Forrest Apache OK 73006 (580) 588-2270"
Washita Valley Community Action Council,Grady County,Chickasha Head Start,1000 W Minnesota Ave,Chickasha,OK,73018-3254,(405) 222-0172,1000 W Minnesota Ave Chickasha OK 73018-3254 (405) 222-0172
Washita Valley Community Action Council,Caddo County,Anadarko Head Start/EHS,315 NE 3rd St,Anadarko,OK,73005-2621,(405) 247-6745,315 NE 3rd St Anadarko OK 73005-2621 (405) 247-6745
Washita Valley Community Action Council,Grady County,Ninnekah,810 Dell Street,Ninnekah,OK,73067,(405) 222-0420,810 Dell Street Ninnekah OK 73067 (405) 222-0420
Washita Valley Community Action Council,Caddo County,Cyril,103 S 4th Street,Cyril,OK,73029,(405) 464-3705,103 S 4th Street Cyril OK 73029 (405) 464-3705
Washita Valley Community Action Council,Caddo County,Fort Cobb Head Start/EHS,100 Career Tech Road,Fort Cobb,OK,73038,(405) 654-5314,100 Career Tech Road Fort Cobb OK 73038 (405) 654-5314
Washita Valley Community Action Council,Caddo County,Fort Cobb Head Start/EHS,100 Career Tech Road,Fort Cobb,OK,73038,(405) 643-5511,100 Career Tech Road Fort Cobb OK 73038 (405) 643-5511
Washita Valley Community Action Council,Grady County,Chickasha EHS,1304 S 6th St,Chickasha,OK,73018-4669,(405) 224-3471,1304 S 6th St Chickasha OK 73018-4669 (405) 224-3471
Washita Valley Community Action Council,Grady County,Pregnant Moms,1000 W Minnesota Ave,Chickasha,OK,73018-3254,(405) 224-5831,1000 W Minnesota Ave Chickasha OK 73018-3254 (405) 224-5831
Washita Valley Community Action Council,Caddo County,Carnegie EHS,511 Town East 1st St,Carnegie,OK,73015-9040,(405) 654-1510,511 Town East 1st St Carnegie OK 73015-9040 (405) 654-1510
Washita Valley Community Action Council,Caddo County,Anadarko Head Start/EHS,315 NE 3rd St,Anadarko,OK,73005-2621,(405) 247-6745,315 NE 3rd St Anadarko OK 73005-2621 (405) 247-6745
CAA of OKC & OK/Canadian Counties,Oklahoma County,Rockwood Elementary Head Start,3101 SW 24th St,Oklahoma City,OK,73108-5236,(405) 587-1518,3101 SW 24th St Oklahoma City OK 73108-5236 (405) 587-1518
CAA of OKC & OK/Canadian Counties,Oklahoma County,Steed Head Start,2118 Flannery Dr,Midwest City,OK,73110-7912,(405) 732-2552,2118 Flannery Dr Midwest City OK 73110-7912 (405) 732-2552
CAA of OKC & OK/Canadian Counties,Oklahoma County,Metro Tech Head Start,3901 N Martin Luther King Ave,Oklahoma City,OK,73111-5221,(405) 595-4750,3901 N Martin Luther King Ave Oklahoma City OK 73111-5221 (405) 595-4750
CAA of OKC & OK/Canadian Counties,Oklahoma County,Mark Twain Elementary,2412 W Main St,Oklahoma City,OK,73107-6956,(405) 232-2006,2412 W Main St Oklahoma City OK 73107-6956 (405) 232-2006
CAA of OKC & OK/Canadian Counties,Oklahoma County,Valley Brook Head Start,6315 Camille Ave,Oklahoma City,OK,73149-5113,(405) 670-6284,6315 Camille Ave Oklahoma City OK 73149-5113 (405) 670-6284
CAA of OKC & OK/Canadian Counties,Oklahoma County,McKinley Head Start,1300 N McKinley Ave,Oklahoma City,OK,73106-4670,(405) 524-5017,1300 N McKinley Ave Oklahoma City OK 73106-4670 (405) 524-5017
CAA of OKC & OK/Canadian Counties,Oklahoma County,Armstrong Head Start,309 SW 5th Street,Luther,OK,73054,(405) 277-3530,309 SW 5th Street Luther OK 73054 (405) 277-3530
CAA of OKC & OK/Canadian Counties,Oklahoma County,Avery Head Start,1425 N Kelham Ave,Oklahoma City,OK,73117-3635,(405) 424-1088,1425 N Kelham Ave Oklahoma City OK 73117-3635 (405) 424-1088
CAA of OKC & OK/Canadian Counties,Oklahoma County,Will Rogers Head Start,1621 SW 15th St,Oklahoma City,OK,73108-6803,(405) 634-4365,1621 SW 15th St Oklahoma City OK 73108-6803 (405) 634-4365
CAA of OKC & OK/Canadian Counties,Oklahoma County,Oak Grove Head Start,3301 SW 17th St,Oklahoma City,OK,73108-4000,(405) 685-2277,3301 SW 17th St Oklahoma City OK 73108-4000 (405) 685-2277
CAA of OKC & OK/Canadian Counties,Oklahoma County,New Heights Head Start,7921 NW 23rd St,Bethany,OK,73008-4949,(405) 440-0230,7921 NW 23rd St Bethany OK 73008-4949 (405) 440-0230
CAA of OKC & OK/Canadian Counties,Oklahoma County,Mt Rose Head Start,1701 NW 7th St,Oklahoma City,OK,73106-2403,(405) 232-6037,1701 NW 7th St Oklahoma City OK 73106-2403 (405) 232-6037
CAA of OKC & OK/Canadian Counties,Oklahoma County,Edmond Head Start,717 Churchill Rd,Edmond,OK,73034-5016,(405) 359-7155,717 Churchill Rd Edmond OK 73034-5016 (405) 359-7155
CAA of OKC & OK/Canadian Counties,Oklahoma County,Wheeler Head Start,501 SE 25th St,Oklahoma City,OK,73129-4726,(405) 587-7027,501 SE 25th St Oklahoma City OK 73129-4726 (405) 587-7027
CAA of OKC & OK/Canadian Counties,Oklahoma County,Garden Diggs Head Start,2201 N Coltrane Rd,Oklahoma City,OK,73121-4622,(405) 427-8515,2201 N Coltrane Rd Oklahoma City OK 73121-4622 (405) 427-8515
CAA of OKC & OK/Canadian Counties,Oklahoma County,Carver Mark Twain Head Start,2412 W Main St,Oklahoma City,OK,73107-6956,(405) 232-2006,2412 W Main St Oklahoma City OK 73107-6956 (405) 232-2006
CAA of OKC & OK/Canadian Counties,Oklahoma County,Happy Times Head Start,405 S Air Depot Blvd,Midwest City,OK,73110-4434,(405) 733-2905,405 S Air Depot Blvd Midwest City OK 73110-4434 (405) 733-2905
CAA of OKC & OK/Canadian Counties,Oklahoma County,Mary Helen Nelson Head Start,1115 NE 7th St,Oklahoma City,OK,73117-1423,(405) 232-2920,1115 NE 7th St Oklahoma City OK 73117-1423 (405) 232-2920
CAA of OKC & OK/Canadian Counties,Oklahoma County,Buchanan Elementary  Head Start,4126 NW 18th St,Oklahoma City,OK,73107-3624,(405) 587-4744,4126 NW 18th St Oklahoma City OK 73107-3624 (405) 587-4744
CAA of OKC & OK/Canadian Counties,Oklahoma County,Plainview Head Start,7105 N Kelley Ave,Oklahoma City,OK,73111-8426,(405) 843-8299,7105 N Kelley Ave Oklahoma City OK 73111-8426 (405) 843-8299
CAA of OKC & OK/Canadian Counties,Oklahoma County,Dana Brown Cooper Head Start,9300 NE 10th St,Midwest City,OK,73130-1320,(405) 733-0289,9300 NE 10th St Midwest City OK 73130-1320 (405) 733-0289
CAA of OKC & OK/Canadian Counties,Oklahoma County,Kaiser Elementary Head Start,3101 Lyon Blvd,Oklahoma City,OK,73112-3333,(405) 587-3621,3101 Lyon Blvd Oklahoma City OK 73112-3333 (405) 587-3621
CAA of OKC & OK/Canadian Counties,Oklahoma County,Kiddie Village Head Start,801 NE 2nd St,Oklahoma City,OK,73104-6613,(405) 235-9833,801 NE 2nd St Oklahoma City OK 73104-6613 (405) 235-9833
CAA of OKC & OK/Canadian Counties,Oklahoma County,West Oak Head Start,2100 S Everest Ave,Oklahoma City,OK,73129-6348,(405) 677-8437,2100 S Everest Ave Oklahoma City OK 73129-6348 (405) 677-8437
CAA of OKC & OK/Canadian Counties,Oklahoma County,Ruth Dropkin Head Start,6500 S Shields Blvd,Oklahoma City,OK,73149-1312,(405) 634-0401,6500 S Shields Blvd Oklahoma City OK 73149-1312 (405) 634-0401
CAA of OKC & OK/Canadian Counties,Oklahoma County,Our Spot Head Start,1532 W Hefner Rd,Oklahoma City,OK,73120-7942,(405) 755-5136,1532 W Hefner Rd Oklahoma City OK 73120-7942 (405) 755-5136
CAA of OKC & OK/Canadian Counties,Oklahoma County,FD Moon Academy Head Start,1901 NE 13th St,Oklahoma City,OK,73117-3613,(405) 427-8391,1901 NE 13th St Oklahoma City OK 73117-3613 (405) 427-8391
CAA of OKC & OK/Canadian Counties,Oklahoma County,Green Pastures Elementary Head Start,4300 N Post Rd,Spencer,OK,73084-4216,(405) 587-4539,4300 N Post Rd Spencer OK 73084-4216 (405) 587-4539
CAA of OKC & OK/Canadian Counties,Oklahoma County,Central Oak Elementary Head Start,1450 S Eastern Ave,Oklahoma City,OK,73129-6035,(405) 677-5211,1450 S Eastern Ave Oklahoma City OK 73129-6035 (405) 677-5211
Sunbeam Family Services,Oklahoma County,Educare,"500
SE Grand Blvd",Oklahoma City,OK,73129,(405) 605-8232,"500
SE Grand Blvd Oklahoma City OK 73129 (405) 605-8232"
KI BOIS Community Action Foundation,Pittsburg County,HARTSHORNE,307 S 12th St,Hartshorne,OK,74547-4401,(918) 297-2027,307 S 12th St Hartshorne OK 74547-4401 (918) 297-2027
KI BOIS Community Action Foundation,Le Flore County,PANAMA,410 Missouri,Panama,OK,74951,(918) 963-2657,410 Missouri Panama OK 74951 (918) 963-2657
KI BOIS Community Action Foundation,Le Flore County,POCOLA,103 S. Pocola Blvd,Pocola,OK,74902,(918) 436-2551,103 S. Pocola Blvd Pocola OK 74902 (918) 436-2551
KI BOIS Community Action Foundation,Le Flore County,WISTER,210 Logan St,Wister,OK,74966-9627,(918) 655-7797,210 Logan St Wister OK 74966-9627 (918) 655-7797
KI BOIS Community Action Foundation,Haskell County,MCCURTAIN,West 3rd Ave,McCurtain,OK,74944,(918) 945-7357,West 3rd Ave McCurtain OK 74944 (918) 945-7357
KI BOIS Community Action Foundation,Le Flore County,ARKOMA,314 State Line Rd,Arkoma,OK,74901-3571,(918) 875-3687,314 State Line Rd Arkoma OK 74901-3571 (918) 875-3687
KI BOIS Community Action Foundation,Le Flore County,POTEAU,407 Hughes Dr,Poteau,OK,74953-5437,(918) 647-7785,407 Hughes Dr Poteau OK 74953-5437 (918) 647-7785
KI BOIS Community Action Foundation,Haskell County,KEOTA,308 E Main St,Keota,OK,74941-6656,(918) 966-3770,308 E Main St Keota OK 74941-6656 (918) 966-3770
KI BOIS Community Action Foundation,Haskell County,STIGLER EAST,1302 E Central Ave,Stigler,OK,74462-2595,(918) 967-8471,1302 E Central Ave Stigler OK 74462-2595 (918) 967-8471
KI BOIS Community Action Foundation,Le Flore County,HEAVENER,500 W 2nd St,Heavener,OK,74937-3002,(918) 653-3517,500 W 2nd St Heavener OK 74937-3002 (918) 653-3517
KI BOIS Community Action Foundation,Le Flore County,CASC - POTEAU,1507 S McKenna St,Poteau,OK,74953-5207,(918) 647-1258,1507 S McKenna St Poteau OK 74953-5207 (918) 647-1258
KI BOIS Community Action Foundation,Le Flore County,FORT COFFEE,16106 Community Road,Fort Coffee,OK,74959,(918) 962-3443,16106 Community Road Fort Coffee OK 74959 (918) 962-3443
KI BOIS Community Action Foundation,Pittsburg County,QUINTON,710 J St,Quinton,OK,74561-2001,(918) 469-2981,710 J St Quinton OK 74561-2001 (918) 469-2981
KI BOIS Community Action Foundation,Le Flore County,SPIRO,600 S Alaska,Spiro,OK,74959,(918) 962-5282,600 S Alaska Spiro OK 74959 (918) 962-5282
KI BOIS Community Action Foundation,Latimer County,RED OAK,405 N Main St,Red Oak,OK,74563,(918) 754-2443,405 N Main St Red Oak OK 74563 (918) 754-2443
KI BOIS Community Action Foundation,Latimer County,WILBURTON,607 SW 8th St,Wilburton,OK,74578-4809,(918) 465-3487,607 SW 8th St Wilburton OK 74578-4809 (918) 465-3487
KI BOIS Community Action Foundation,Le Flore County,TALIHINA,400 Helen St,Talihina,OK,74571-2037,(918) 567-2082,400 Helen St Talihina OK 74571-2037 (918) 567-2082
KI BOIS Community Action Foundation,Pittsburg County,KIOWA,805 S Van Buren,Kiowa,OK,74553-5119,(918) 432-5022,805 S Van Buren Kiowa OK 74553-5119 (918) 432-5022
KI BOIS Community Action Foundation,Haskell County,STIGLER WEST,105 NW 9th St,Stigler,OK,74462-1704,(918) 967-8042,105 NW 9th St Stigler OK 74462-1704 (918) 967-8042
KI BOIS Community Action Foundation,Le Flore County,HOWE,21444 E North Railroad,Howe,OK,74940,(918) 658-2450,21444 E North Railroad Howe OK 74940 (918) 658-2450
Choctaw Nation of Oklahoma,Bryan County,Choctaw Nation Child Development Center-Bennington,820 N Perry St,Bennington,OK,74723-1105,(580) 847-2528,820 N Perry St Bennington OK 74723-1105 (580) 847-2528
Big Five Community Services,Woods County,Alva Head Start,901 14th St,Alva,OK,73717-2500,(580) 327-6658,901 14th St Alva OK 73717-2500 (580) 327-6658
Big Five Community Services,Cimarron County,Boise City Head Start,402 SE 4th,Boise City,OK,73933,(580) 544-2116,402 SE 4th Boise City OK 73933 (580) 544-2116
Big Five Community Services,Canadian County,Calumet Public School,101 S Freehome,Calumet,OK,73014,(405) 893-2222,101 S Freehome Calumet OK 73014 (405) 893-2222
Big Five Community Services,Custer County,Clinton 123 Head Start,700 Avant Ave,Clinton,OK,73601-3918,(580) 323-8181,700 Avant Ave Clinton OK 73601-3918 (580) 323-8181
Big Five Community Services,Garfield County,Enid Westside Head Start,1902 W Chestnut Ave,Enid,OK,73703-4315,(580) 297-5107,1902 W Chestnut Ave Enid OK 73703-4315 (580) 297-5107
Big Five Community Services,Garfield County,Applewood Early Learning Center,525 S Quincy St,Enid,OK,73701-5456,(580) 701-4430,525 S Quincy St Enid OK 73701-5456 (580) 701-4430
Big Five Community Services,Canadian County,El Reno Public School (Hillcrest),1302 S Miles Ave,El Reno,OK,73036-5431,,1302 S Miles Ave El Reno OK 73036-5431 nan
Big Five Community Services,Garfield County,Summerhill (Collaboration),4619 W Randolph Ave,Enid,OK,73703-3442,(580) 234-6844,4619 W Randolph Ave Enid OK 73703-3442 (580) 234-6844
Big Five Community Services,Garfield County,Turn the Page (Collaboration),1524 E Broadway Ave,Enid,OK,73701-4537,(580) 366-4067,1524 E Broadway Ave Enid OK 73701-4537 (580) 366-4067
Big Five Community Services,Major County,Fairview Public School,408 E Broadway,Fairview,OK,73737-2110,(580) 227-4802,408 E Broadway Fairview OK 73737-2110 (580) 227-4802
Big Five Community Services,Major County,Adventure Time Learning Center,720 Cedar Springs Rd,Fairview,OK,73737-9519,(580) 227-3400,720 Cedar Springs Rd Fairview OK 73737-9519 (580) 227-3400
Big Five Community Services,Texas County,Guymon Head Start,601 N Academy St,Guymon,OK,73942-4234,(580) 338-6624,601 N Academy St Guymon OK 73942-4234 (580) 338-6624
Big Five Community Services,Kingfisher County,Kingfisher Head Start,519 S 9th St,Kingfisher,OK,73750-3527,(405) 375-5571,519 S 9th St Kingfisher OK 73750-3527 (405) 375-5571
Big Five Community Services,Blaine County,Watonga Head Start,714 E A St,Watonga,OK,73772-5077,(580) 623-5401,714 E A St Watonga OK 73772-5077 (580) 623-5401
Big Five Community Services,Custer County,Weatherford Head Start,720 N Daniel St,Weatherford,OK,73096-4104,(580) 774-5137,720 N Daniel St Weatherford OK 73096-4104 (580) 774-5137
Big Five Community Services,Blaine County,Watonga EHS,901 North Leach Ave,Watonga,OK,73772-1616,,901 North Leach Ave Watonga OK 73772-1616 nan
Big Five Community Services,Woodward County,Woodward HS/EHS,813 Madison Ave,Woodward,OK,73801-1457,(580) 254-2227,813 Madison Ave Woodward OK 73801-1457 (580) 254-2227
Big Five Community Services,Woodward County,Woodward HS/EHS,813 Madison Ave,Woodward,OK,73801-1457,(580) 254-2227,813 Madison Ave Woodward OK 73801-1457 (580) 254-2227
Big Five Community Services,Canadian County,Yukon Chisholm Trail HS/EHS,801 W Vandament Ave,Yukon,OK,73099-3876,(405) 350-3180,801 W Vandament Ave Yukon OK 73099-3876 (405) 350-3180
Big Five Community Services,Canadian County,Yukon Parkland Head Start (Public School),2201 Cornwell Dr,Yukon,OK,73099-5211,(405) 354-7786,2201 Cornwell Dr Yukon OK 73099-5211 (405) 354-7786
Ponca Tribe of Oklahoma,Kay County,Ponca Tribe Head Start,228 White Eagle Dr,Ponca City,OK,74601-8315,(580) 762-7927,228 White Eagle Dr Ponca City OK 74601-8315 (580) 762-7927
Big Five Community Services,Hughes County,Holdenville Head Start,510 E Main St,Holdenville,OK,74848-5246,(405) 379-2000,510 E Main St Holdenville OK 74848-5246 (405) 379-2000
Big Five Community Services,Hughes County,Calvin Public Schools,222 4th Street,Calvin,OK,74531,(405) 645-2411,222 4th Street Calvin OK 74531 (405) 645-2411
Big Five Community Services,Hughes County,Holdenville Public Schools,615 S Broadway St,Holdenville,OK,74848-3033,(405) 379-6618,615 S Broadway St Holdenville OK 74848-3033 (405) 379-6618
Big Five Community Services,Okfuskee County,Okemah Public School,101 N 16th St,Okemah,OK,74859-2043,(918) 623-1874,101 N 16th St Okemah OK 74859-2043 (918) 623-1874
Big Five Community Services,Okfuskee County,Weleetka Public School,302 E 6th St,Weleetka,OK,74880-8202,(405) 786-2346,302 E 6th St Weleetka OK 74880-8202 (405) 786-2346
Choctaw Nation of Oklahoma,Coal County,Coalgate Head Start,214 S Veterans Dr,Coalgate,OK,74538-2664,(580) 927-1165,214 S Veterans Dr Coalgate OK 74538-2664 (580) 927-1165
Choctaw Nation of Oklahoma,Le Flore County,Poteau Head Start,101 Kerr Ave,Poteau,OK,74953-5270,(918) 647-8500,101 Kerr Ave Poteau OK 74953-5270 (918) 647-8500
Choctaw Nation of Oklahoma,Bryan County,Durant Head Start,2752 Big Lots Rd,Durant,OK,74701-2299,(580) 924-8536,2752 Big Lots Rd Durant OK 74701-2299 (580) 924-8536
Choctaw Nation of Oklahoma,McCurtain County,Idabel Head Start,2412 E Lincoln Rd,Idabel,OK,74745-8117,(580) 286-7930,2412 E Lincoln Rd Idabel OK 74745-8117 (580) 286-7930
Choctaw Nation of Oklahoma,Pittsburg County,McAlester Head Start,3262 Afullota Hina,McAlester,OK,74501-3205,(918) 423-9360,3262 Afullota Hina McAlester OK 74501-3205 (918) 423-9360
Choctaw Nation of Oklahoma,Choctaw County,Hugo Head Start,408 N M St,Hugo,OK,74743-1820,(580) 326-9576,408 N M St Hugo OK 74743-1820 (580) 326-9576
Choctaw Nation of Oklahoma,Haskell County,Stigler Head Start,208 S City Lake Rd,Stigler,OK,74462-3121,(918) 967-2897,208 S City Lake Rd Stigler OK 74462-3121 (918) 967-2897
Choctaw Nation of Oklahoma,McCurtain County,Broken Bow Head Start,201 Chahta St,Broken Bow,OK,74728-4108,(580) 584-6680,201 Chahta St Broken Bow OK 74728-4108 (580) 584-6680
Choctaw Nation of Oklahoma,Pushmataha County,Antlers Head Start,400 1/2 SW O St,Antlers,OK,74523,(580) 298-2113,400 1/2 SW O St Antlers OK 74523 (580) 298-2113
Choctaw Nation of Oklahoma,Latimer County,Wilburton Head Start,1016 Highway 2 N,Wilburton,OK,74578-3607,(918) 465-5360,1016 Highway 2 N Wilburton OK 74578-3607 (918) 465-5360
Choctaw Nation of Oklahoma,McCurtain County,Wright City Head Start,5704 Rodeo Grounds Rd,Wright City,OK,74766-5145,(580) 981-2634,5704 Rodeo Grounds Rd Wright City OK 74766-5145 (580) 981-2634
Choctaw Nation of Oklahoma,Atoka County,Atoka Head Start,1633 W Liberty Rd,Atoka,OK,74525-1704,(580) 889-7054,1633 W Liberty Rd Atoka OK 74525-1704 (580) 889-7054
Choctaw Nation of Oklahoma,Bryan County,Bennington Head Start,820 N Perry St,Bennington,OK,74723-1105,(580) 847-2767,820 N Perry St Bennington OK 74723-1105 (580) 847-2767
Cherokee Nation,Rogers County,Inola Head Start,"450 B St NW
450 B St NW",Inola,OK,74036-3607,(918) 543-1217,"450 B St NW
450 B St NW Inola OK 74036-3607 (918) 543-1217"
Cherokee Nation,Adair County,Zion Head Start,470658 E 850 Rd,Stilwell,OK,74960,(918) 696-7866,470658 E 850 Rd Stilwell OK 74960 (918) 696-7866
Cherokee Nation,Adair County,Rocky Mountain Head Start,RR 1 Box 665,Stilwell,OK,74960-9726,(918) 696-7509,RR 1 Box 665 Stilwell OK 74960-9726 (918) 696-7509
Cherokee Nation,Muskogee County,Webbers Falls Head Start,"207 Gibson Street
207 Gibson Street",Webbers Falls,OK,74470,(918) 464-2959,"207 Gibson Street
207 Gibson Street Webbers Falls OK 74470 (918) 464-2959"
Cherokee Nation,Sequoyah County,Brushy Head Start,100968 S 4650 Rd,Sallisaw,OK,74955-2672,(918) 775-4458,100968 S 4650 Rd Sallisaw OK 74955-2672 (918) 775-4458
Cherokee Nation,Cherokee County,Shady Grove Head Start,11042 W Shady Grove Rd,Hulbert,OK,74441-4154,(918) 772-3505,11042 W Shady Grove Rd Hulbert OK 74441-4154 (918) 772-3505
Cherokee Nation,Adair County,Maryetta Head Start,"RR 6 Box 2840
1 MI N. on Hwy 59",Stilwell,OK,74960-9452,(918) 696-3751,"RR 6 Box 2840
1 MI N. on Hwy 59 Stilwell OK 74960-9452 (918) 696-3751"
Cherokee Nation,Mayes County,Kenwood Head Start,48512 S 502 Rd,Salina,OK,74365-2566,(918) 434-5106,48512 S 502 Rd Salina OK 74365-2566 (918) 434-5106
Cherokee Nation,Mayes County,Salina Head Start,907 N Saltwell St,Salina,OK,74365-2217,(918) 434-6076,907 N Saltwell St Salina OK 74365-2217 (918) 434-6076
Cherokee Nation,Mayes County,Salina Early Learning Academy,707 N Cherokee St,Salina,OK,74365-2020,(918) 434-1091,707 N Cherokee St Salina OK 74365-2020 (918) 434-1091
Cherokee Nation,Cherokee County,Sequoyah Public School Head Start,425 S College Ave,Tahlequah,OK,74464-4419,(918) 458-4110,425 S College Ave Tahlequah OK 74464-4419 (918) 458-4110
Cherokee Nation,Adair County,Cherry Tree EHS,"RR 1 Box 685
8 Mile South Hwy 59",Stilwell,OK,74960-9726,(918) 696-2669,"RR 1 Box 685
8 Mile South Hwy 59 Stilwell OK 74960-9726 (918) 696-2669"
Cherokee Nation,Delaware County,Jay,"1011 W Delaware
1011 W Delaware",Jay,OK,74346,(918) 253-4002,"1011 W Delaware
1011 W Delaware Jay OK 74346 (918) 253-4002"
Cherokee Nation,Mayes County,Pryor,203 Cherokee Hts,Pryor,OK,74361-9681,(918) 825-7987,203 Cherokee Hts Pryor OK 74361-9681 (918) 825-7987
Cherokee Nation,Nowata County,Wauhillau (Nowata),200 Wauhillau Ct,Nowata,OK,74048-2443,(918) 273-0623,200 Wauhillau Ct Nowata OK 74048-2443 (918) 273-0623
Cherokee Nation,Adair County,Redbird,US-59,Stilwell,OK,74960,(918) 696-7894,US-59 Stilwell OK 74960 (918) 696-7894
Cherokee Nation,Cherokee County,Tahlequah Early Learning Academy,351 Academy St,Tahlequah,OK,74464-2659,(918) 316-2085,351 Academy St Tahlequah OK 74464-2659 (918) 316-2085
United Community Action Program,Payne County,Stillwater Head Start/Early Head Start,1601 S Main St,Stillwater,OK,74074-7933,(405) 385-0188,1601 S Main St Stillwater OK 74074-7933 (405) 385-0188
United Community Action Program,Creek County,Sapulpa Head Start,404 S Walnut St,Sapulpa,OK,74066-5337,(918) 224-1083,404 S Walnut St Sapulpa OK 74066-5337 (918) 224-1083
United Community Action Program,Logan County,Guthrie Head Start,2700 S Division St,Guthrie,OK,73044-6843,(405) 282-1257,2700 S Division St Guthrie OK 73044-6843 (405) 282-1257
United Community Action Program,Noble County,Perry Head Start,1201 N 4th St,Perry,OK,73077-9300,(580) 336-4373,1201 N 4th St Perry OK 73077-9300 (580) 336-4373
United Community Action Program,Okmulgee County,Beggs Head Start,8060 Highway 16,Beggs,OK,74421-3126,(918) 267-3737,8060 Highway 16 Beggs OK 74421-3126 (918) 267-3737
United Community Action Program,Okmulgee County,Okmulgee Head Start,4300 N Wood Dr,Okmulgee,OK,74447-9762,(918) 756-1561,4300 N Wood Dr Okmulgee OK 74447-9762 (918) 756-1561
United Community Action Program,Okmulgee County,Henryetta Head Start,100 W Clegern St,Henryetta,OK,74437-6218,(918) 652-8092,100 W Clegern St Henryetta OK 74437-6218 (918) 652-8092
United Community Action Program,Osage County,Hominy Head Start/Early Head Start,1120 S She She Ave,Hominy,OK,74035-6514,(918) 885-4422,1120 S She She Ave Hominy OK 74035-6514 (918) 885-4422
United Community Action Program,Kay County,Ponca City Head Start,407 S Ash St,Ponca City,OK,74601-5902,(580) 765-1173,407 S Ash St Ponca City OK 74601-5902 (580) 765-1173
United Community Action Program,Kay County,Blackwell Head Start,624 W Lincoln Ave,Blackwell,OK,74631-3236,(580) 363-5566,624 W Lincoln Ave Blackwell OK 74631-3236 (580) 363-5566
United Community Action Program,Creek County,Bristow Head Start Child Development Center,715 Country Club Drive,Bristow,OK,74010,(918) 367-9662,715 Country Club Drive Bristow OK 74010 (918) 367-9662
United Community Action Program,Pawnee County,Pawnee Head Start/Early Head Start,1101 Sewell Dr,Pawnee,OK,74058,(918) 762-3474,1101 Sewell Dr Pawnee OK 74058 (918) 762-3474
United Community Action Program,Osage County,Pawhuska Head Start,1425 Lynn Ave,Pawhuska,OK,74056-2256,(918) 287-1611,1425 Lynn Ave Pawhuska OK 74056-2256 (918) 287-1611
United Community Action Program,Payne County,Cushing Head Start,223 S Wilson Ave,Cushing,OK,74023-4146,(918) 225-0909,223 S Wilson Ave Cushing OK 74023-4146 (918) 225-0909
United Community Action Program,Payne County,Stillwater Early Head Start,1202 S West St,Stillwater,OK,74074-5702,(405) 377-1519,1202 S West St Stillwater OK 74074-5702 (405) 377-1519
United Community Action Program,Okmulgee County,Okmulgee Head Start,4300 N Wood Dr,Okmulgee,OK,74447-9762,(918) 756-1561,4300 N Wood Dr Okmulgee OK 74447-9762 (918) 756-1561
United Community Action Program,Pawnee County,Pawnee Head Start/Early Head Start,1101 Sewell Dr,Pawnee,OK,74058,(918) 762-3474,1101 Sewell Dr Pawnee OK 74058 (918) 762-3474
United Community Action Program,Noble County,Perry Early Head Start,401 1/2 Noble St,Perry,OK,73077-2407,(580) 572-9978,401 1/2 Noble St Perry OK 73077-2407 (580) 572-9978
United Community Action Program,Okmulgee County,Beggs 1 Head Start,1201 W 9th St,Beggs,OK,74421-2193,(918) 267-3616,1201 W 9th St Beggs OK 74421-2193 (918) 267-3616
United Community Action Program,Osage County,Pawhuska Early Head Start,1923 McKenzie Rd,Pawhuska,OK,74056-5018,(918) 287-3195,1923 McKenzie Rd Pawhuska OK 74056-5018 (918) 287-3195
United Community Action Program,Logan County,Guthrie Head Start,2700 S Division St,Guthrie,OK,73044-6843,(405) 282-1257,2700 S Division St Guthrie OK 73044-6843 (405) 282-1257
United Community Action Program,Okmulgee County,Henryetta Head Start,100 W Clegern St,Henryetta,OK,74437-6218,(918) 652-8092,100 W Clegern St Henryetta OK 74437-6218 (918) 652-8092
United Community Action Program,Creek County,Sapulpa Early Head Start,1500 N Hickory St,Sapulpa,OK,74066-1740,(918) 224-1094,1500 N Hickory St Sapulpa OK 74066-1740 (918) 224-1094
United Community Action Program,Kay County,Blackwell Head Start,624 W Lincoln Ave,Blackwell,OK,74631-3236,(580) 363-5566,624 W Lincoln Ave Blackwell OK 74631-3236 (580) 363-5566
Cherokee Nation,Mayes County,Salina Early Learning Academy,707 N Cherokee St,Salina,OK,74365-2020,(918) 494-1091,707 N Cherokee St Salina OK 74365-2020 (918) 494-1091
United Community Action Program,Pawnee County,Cleveland Head Start,900 W Delaware St,Cleveland,OK,74020-4212,(918) 358-5304,900 W Delaware St Cleveland OK 74020-4212 (918) 358-5304
United Community Action Program,Payne County,Stillwater Head Start/Early Head Start,1601 S Main St,Stillwater,OK,74074-7933,(405) 385-0188,1601 S Main St Stillwater OK 74074-7933 (405) 385-0188
United Community Action Program,Osage County,Hominy Head Start 2,617 N Eastern,Hominy,OK,74035-1593,(918) 885-4422,617 N Eastern Hominy OK 74035-1593 (918) 885-4422
United Community Action Program,Osage County,Hominy Head Start/Early Head Start,1120 S She She Ave,Hominy,OK,74035-6514,(918) 885-4422,1120 S She She Ave Hominy OK 74035-6514 (918) 885-4422
United Community Action Program,Pawnee County,Cleveland Early Head Start,908 W Cherokee St,Cleveland,OK,74020-4208,(918) 358-3121,908 W Cherokee St Cleveland OK 74020-4208 (918) 358-3121
Cherokee Nation,Cherokee County,Hulbert Public School,315 S Rider Ln,Hulbert,OK,74441-4186,(918) 772-2861,315 S Rider Ln Hulbert OK 74441-4186 (918) 772-2861
Cherokee Nation,Cherokee County,Sequoyah Head Start,425 S College Ave,Tahlequah,OK,74464-4419,(918) 458-4130,425 S College Ave Tahlequah OK 74464-4419 (918) 458-4130
United Community Action Program,Payne County,Cushing Head Start,223 S Wilson Ave,Cushing,OK,74023-4146,(918) 225-0909,223 S Wilson Ave Cushing OK 74023-4146 (918) 225-0909
Central Tribes of the Shawnee Area,Pottawatomie County,Little Feet Big Steps,1533 N McKinley Ave,Shawnee,OK,74801-5200,(405) 878-5820,1533 N McKinley Ave Shawnee OK 74801-5200 (405) 878-5820
Central Tribes of the Shawnee Area,Payne County,Early Bird Head Start,111 W Vine St,Cushing,OK,74023-2141,(918) 225-1029,111 W Vine St Cushing OK 74023-2141 (918) 225-1029
Central Tribes of the Shawnee Area,Pottawatomie County,Little Feet Big Steps,1533 N McKinley Ave,Shawnee,OK,74801-5200,(405) 878-5820,1533 N McKinley Ave Shawnee OK 74801-5200 (405) 878-5820
Community Action Project of Tulsa County,Tulsa County,Frost,203 W 28th St N,Tulsa,OK,74106-2207,(918) 556-0319,203 W 28th St N Tulsa OK 74106-2207 (918) 556-0319
Community Action Project of Tulsa County,Tulsa County,Disney,11610 E 25th St,Tulsa,OK,74129-5627,(918) 439-9608,11610 E 25th St Tulsa OK 74129-5627 (918) 439-9608
Community Action Project of Tulsa County,Tulsa County,McClure,6150 S Yorktown Ave,Tulsa,OK,74136-0958,(918) 747-7123,6150 S Yorktown Ave Tulsa OK 74136-0958 (918) 747-7123
Community Action Project of Tulsa County,Tulsa County,Skelly,8811 E 31st St,Tulsa,OK,74145-1701,(918) 949-3400,8811 E 31st St Tulsa OK 74145-1701 (918) 949-3400
Community Action Project of Tulsa County,Tulsa County,Rosa Parks ECEC,13804 E 46th Pl,Tulsa,OK,74134-5983,(918) 286-0660,13804 E 46th Pl Tulsa OK 74134-5983 (918) 286-0660
Community Action Project of Tulsa County,Tulsa County,Eugene Field,1120 W 22nd St,Tulsa,OK,74107-2812,(918) 340-5600,1120 W 22nd St Tulsa OK 74107-2812 (918) 340-5600
Community Action Project of Tulsa County,Tulsa County,ECDC Reed,10908 E 5th St,Tulsa,OK,74128-1612,(918) 935-3101,10908 E 5th St Tulsa OK 74128-1612 (918) 935-3101
Community Action Project of Tulsa County,Tulsa County,Disney,11610 E 25th St,Tulsa,OK,74129-5627,(918) 439-9608,11610 E 25th St Tulsa OK 74129-5627 (918) 439-9608
Community Action Project of Tulsa County,Tulsa County,Eugene Field,1120 W 22nd St,Tulsa,OK,74107-2812,(918) 340-5600,1120 W 22nd St Tulsa OK 74107-2812 (918) 340-5600
Community Action Project of Tulsa County,Tulsa County,Skelly,8811 E 31st St,Tulsa,OK,74145-1701,(918) 949-3400,8811 E 31st St Tulsa OK 74145-1701 (918) 949-3400
Community Action Project of Tulsa County,Tulsa County,Frost,203 W 28th St N,Tulsa,OK,74106-2207,(918) 556-0319,203 W 28th St N Tulsa OK 74106-2207 (918) 556-0319
Community Action Project of Tulsa County,Tulsa County,Sand Springs,1701 Park Rd,Sand Springs,OK,74063-8701,(918) 419-2900,1701 Park Rd Sand Springs OK 74063-8701 (918) 419-2900
Community Action Project of Tulsa County,Tulsa County,McClure,6150 S Yorktown Ave,Tulsa,OK,74136-0958,(918) 747-7123,6150 S Yorktown Ave Tulsa OK 74136-0958 (918) 747-7123
United Community Action Program,Tulsa County,Sand Springs Early Head Start,1701 East Park Rd,Sand Springs,OK,74063-8701,(918) 419-2901,1701 East Park Rd Sand Springs OK 74063-8701 (918) 419-2901
Big Five Community Services,Bryan County,Bill Haddock Center,1502 N 1st Ave,Durant,OK,74701-2814,(580) 924-4907,1502 N 1st Ave Durant OK 74701-2814 (580) 924-4907
Big Five Community Services,Bryan County,Calera Head Start,111 N 3rd St,Calera,OK,74730-1711,(580) 434-5500,111 N 3rd St Calera OK 74730-1711 (580) 434-5500
Big Five Community Services,Carter County,Fox Head Start,100 Creek Ave,Fox,OK,73435,(580) 673-2206,100 Creek Ave Fox OK 73435 (580) 673-2206
Big Five Community Services,Coal County,Cottonwood Head Start,1 Lubbis St,Coalgate,OK,74538,(580) 927-2251,1 Lubbis St Coalgate OK 74538 (580) 927-2251
Big Five Community Services,Pontotoc County,Ada Big Five Head Start,1721 Cradduck Rd,Ada,OK,74820-9491,(580) 332-8233,1721 Cradduck Rd Ada OK 74820-9491 (580) 332-8233
Big Five Community Services,Carter County,Wilson Head Start,1860 Hewitt Rd,Wilson,OK,73463-1882,(580) 668-2306,1860 Hewitt Rd Wilson OK 73463-1882 (580) 668-2306
Big Five Community Services,Carter County,Healdton Bullpups,457 Carter St,Healdton,OK,73438-2846,(580) 224-1899,457 Carter St Healdton OK 73438-2846 (580) 224-1899
Big Five Community Services,Bryan County,SOSU,1335 N 6th Ave,Durant,OK,74701-3339,(580) 924-5043,1335 N 6th Ave Durant OK 74701-3339 (580) 924-5043
Big Five Community Services,Bryan County,Achille Head Start,201 N 5th Ave,Achille,OK,74720,(580) 283-3022,201 N 5th Ave Achille OK 74720 (580) 283-3022
Big Five Community Services,Pontotoc County,Stonewall Head Start,26050 County Rd 3590,Fittstown,OK,74842,(580) 777-2221,26050 County Rd 3590 Fittstown OK 74842 (580) 777-2221
Big Five Community Services,Coal County,Tupelo Head Start,310 High School Rd,Tupelo,OK,74572,(580) 845-2887,310 High School Rd Tupelo OK 74572 (580) 845-2887
Big Five Community Services,Love County,Marietta Head Start,910 W Main St,Marietta,OK,73448-2207,(580) 276-4192,910 W Main St Marietta OK 73448-2207 (580) 276-4192
Big Five Community Services,Pontotoc County,Roff Head Start,21880 County Rd 3499,Fitzhugh,OK,74843,(580) 332-8976,21880 County Rd 3499 Fitzhugh OK 74843 (580) 332-8976
Big Five Community Services,Love County,Marietta Day Care,800 S Highway 77,Marietta,OK,73448-4208,(580) 276-2474,800 S Highway 77 Marietta OK 73448-4208 (580) 276-2474
Big Five Community Services,Carter County,Will Rogers,11 Monroe St NW,Ardmore,OK,73401-2027,(580) 223-2482,11 Monroe St NW Ardmore OK 73401-2027 (580) 223-2482
Big Five Community Services,Coal County,Coalgate Head Start,111 W Fox Ave,Coalgate,OK,74538-1816,(580) 927-3699,111 W Fox Ave Coalgate OK 74538-1816 (580) 927-3699
Big Five Community Services,Bryan County,Jackie Watson Center,3725 W Arkansas St,Durant,OK,74701-4511,(580) 924-7404,3725 W Arkansas St Durant OK 74701-4511 (580) 924-7404
Big Five Community Services,Pontotoc County,Latta Kids Zone,13924 County Road 1560,Ada,OK,74820-0804,(580) 332-3035,13924 County Road 1560 Ada OK 74820-0804 (580) 332-3035
Big Five Community Services,Carter County,Zaneis Head Start,30515 US Highway 70,Wilson,OK,73463-7311,(580) 668-2737,30515 US Highway 70 Wilson OK 73463-7311 (580) 668-2737
Big Five Community Services,Bryan County,Colbert Head Start,407 N Maupin Rd,Colbert,OK,74733-1609,(580) 296-2738,407 N Maupin Rd Colbert OK 74733-1609 (580) 296-2738
Big Five Community Services,Bryan County,Silo Head Start,86 Texas St,Durant,OK,74701-8612,(580) 924-5299,86 Texas St Durant OK 74701-8612 (580) 924-5299
Big Five Community Services,Bryan County,Robert E. Lee,824 W Louisiana St,Durant,OK,74701-6100,(580) 924-3628,824 W Louisiana St Durant OK 74701-6100 (580) 924-3628
Southwest Oklahoma Community Action Group,Jackson County,Wilson Head Start,905 N Willard St,Altus,OK,73521-3204,(580) 480-1155,905 N Willard St Altus OK 73521-3204 (580) 480-1155
Southwest Oklahoma Community Action Group,Jackson County,June Bailey Head Start,201 S Lee St,Altus,OK,73521-4221,(580) 477-7739,201 S Lee St Altus OK 73521-4221 (580) 477-7739
Southwest Oklahoma Community Action Group,Jackson County,Altus Child Development/Lincoln Head Start,900 S Carver Rd,Altus,OK,73521-4602,(580) 482-3080,900 S Carver Rd Altus OK 73521-4602 (580) 482-3080
Southwest Oklahoma Community Action Group,Beckham County,Elk City Head Start,"1700 W 8th St
1702 W 8th",Elk City,OK,73644-6151,(580) 225-4103,"1700 W 8th St
1702 W 8th Elk City OK 73644-6151 (580) 225-4103"
Southwest Oklahoma Community Action Group,Harmon County,Hollis Head Start,902 E Vivian St,Hollis,OK,73550-2634,(580) 688-9177,902 E Vivian St Hollis OK 73550-2634 (580) 688-9177
Southwest Oklahoma Community Action Group,Greer County,Mangum Head Start,571 E Lincoln St,Mangum,OK,73554-4407,(580) 782-3712,571 E Lincoln St Mangum OK 73554-4407 (580) 782-3712
Southwest Oklahoma Community Action Group,Jackson County,Altus Child Development/Lincoln Head Start,900 S Carver Rd,Altus,OK,73521-4602,(580) 482-3080,900 S Carver Rd Altus OK 73521-4602 (580) 482-3080
Southwest Oklahoma Community Action Group,Harmon County,Hollis Head Start,902 E Vivian St,Hollis,OK,73550-2634,(580) 688-9177,902 E Vivian St Hollis OK 73550-2634 (580) 688-9177
Southwest Oklahoma Community Action Group,Beckham County,Elk City Head Start,"1700 W 8th St
1702 W 8th",Elk City,OK,73644-6151,(580) 225-4101,"1700 W 8th St
1702 W 8th Elk City OK 73644-6151 (580) 225-4101"
Southwest Oklahoma Community Action Group,Jackson County,June Bailey Head Start,201 S Lee St,Altus,OK,73521-4221,(580) 482-1919,201 S Lee St Altus OK 73521-4221 (580) 482-1919
Southwest Oklahoma Community Action Group,Greer County,Mangum Head Start,571 E Lincoln St,Mangum,OK,73554-4407,(580) 782-3712,571 E Lincoln St Mangum OK 73554-4407 (580) 782-3712
Southwest Oklahoma Community Action Group,Jackson County,Wilson Head Start,905 N Willard St,Altus,OK,73521-3204,(580) 480-1155,905 N Willard St Altus OK 73521-3204 (580) 480-1155
Wewoka Public Schools Co-op Head Start,Lincoln County,Chandler Head Start,401 S Iowa Ave,Chandler,OK,74834-2473,(405) 240-5097,401 S Iowa Ave Chandler OK 74834-2473 (405) 240-5097
Wewoka Public Schools Co-op Head Start,Lincoln County,Agra Pre-K Head Start,421 N Cleveland,Agra,OK,74824,(918) 375-2856,421 N Cleveland Agra OK 74824 (918) 375-2856
Wewoka Public Schools Co-op Head Start,Lincoln County,Stroud Head Start,823 S 3rd Ave,Stroud,OK,74079-5217,(918) 968-1443,823 S 3rd Ave Stroud OK 74079-5217 (918) 968-1443
Wewoka Public Schools Co-op Head Start,Seminole County,Seminole Head Start,200 W Seminole Ave,Seminole,OK,74868-3334,(405) 382-4800,200 W Seminole Ave Seminole OK 74868-3334 (405) 382-4800
Wewoka Public Schools Co-op Head Start,Seminole County,Wewoka Head Start,1121 S Okfuskee Ave,Wewoka,OK,74884-3553,(405) 257-9911,1121 S Okfuskee Ave Wewoka OK 74884-3553 (405) 257-9911
Wewoka Public Schools Co-op Head Start,Lincoln County,Prague Head Start,"3502 Nbu
1319 Westlawn",Prague,OK,74864-2031,(405) 567-1421,"3502 Nbu
1319 Westlawn Prague OK 74864-2031 (405) 567-1421"
Wewoka Public Schools Co-op Head Start,Seminole County,Bowlegs Head Start,100 Bison Drive,Bowlegs,OK,74830,(405) 398-4172,100 Bison Drive Bowlegs OK 74830 (405) 398-4172
Wewoka Public Schools Co-op Head Start,Lincoln County,Davenport Head Start,417 Broadway,Davenport,OK,74026,(918) 377-2277,417 Broadway Davenport OK 74026 (918) 377-2277
Choctaw Nation of Oklahoma,Coal County,Choctaw Nation Child Development-Coalgate,214 S Veterans Dr,Coalgate,OK,74538-2664,(580) 927-2118,214 S Veterans Dr Coalgate OK 74538-2664 (580) 927-2118
Choctaw Nation of Oklahoma,Bryan County,Choctaw Nation Child Development-Durant,2752 Big Lots Rd,Durant,OK,74701-2299,(580) 920-1801,2752 Big Lots Rd Durant OK 74701-2299 (580) 920-1801
Choctaw Nation of Oklahoma,Bryan County,Choctaw Nation Expansion,816 W Evergreen St,Durant,OK,74701-4752,(580) 924-8280,816 W Evergreen St Durant OK 74701-4752 (580) 924-8280
Washita Valley Community Action Council,Grady County,Chickasha Head Start,1000 W Minnesota Ave,Chickasha,OK,73018-3254,(405) 222-0172,1000 W Minnesota Ave Chickasha OK 73018-3254 (405) 222-0172
Native American Coalition of Tulsa,Tulsa County,NACT Head Start  Campus 97,5550 S Highway 97,Sand Springs,OK,74063-3711,(918) 514-4327,5550 S Highway 97 Sand Springs OK 74063-3711 (918) 514-4327
United Community Action Program,Kay County,Ponca City Early Head Start,427 S Ash St,Ponca City,OK,74601-5902,(580) 765-1173,427 S Ash St Ponca City OK 74601-5902 (580) 765-1173
CAA of OKC & OK/Canadian Counties,Oklahoma County,Santa Fe South Charter,2222 SW 44th St,Oklahoma City,OK,73119-3526,(405) 601-0597,2222 SW 44th St Oklahoma City OK 73119-3526 (405) 601-0597
Wewoka Public Schools Co-op Head Start,Lincoln County,Carney Head Start,204 N Carney St.,Carney,OK,74832-9686,(405) 865-2344,204 N Carney St. Carney OK 74832-9686 (405) 865-2344
Wewoka Public Schools Co-op Head Start,Seminole County,Butner Head Start,Hwy 56 and Yahola,Cromwell,OK,74837,(405) 944-5526,Hwy 56 and Yahola Cromwell OK 74837 (405) 944-5526
Wewoka Public Schools Co-op Head Start,Seminole County,Sasakwa Head Start,106 Olive St,Sasakwa,OK,74867-6757,(405) 941-3250,106 Olive St Sasakwa OK 74867-6757 (405) 941-3250
Big Five Community Services,Major County,Adventure Time Learning Center,720 Cedar Springs Rd,Fairview,OK,73737-9519,(580) 227-3400,720 Cedar Springs Rd Fairview OK 73737-9519 (580) 227-3400
KI BOIS Community Action Foundation,Pittsburg County,MCALESTER - WASHINGTON,700 S 6th St,McAlester,OK,74501-6617,(918) 423-0265,700 S 6th St McAlester OK 74501-6617 (918) 423-0265
Otoe-Missouria Tribal Council,Noble County,Otoe-Missouria Tribal Head Start,8151 Highway 177,Red Rock,OK,74651-0348,(580) 723-4466,8151 Highway 177 Red Rock OK 74651-0348 (580) 723-4466
The Chickasaw Nation,Johnston County,Tishomingo Head Start,803 E 6th St,Tishomingo,OK,73460-1800,(580) 371-3216,803 E 6th St Tishomingo OK 73460-1800 (580) 371-3216
The Chickasaw Nation,Murray County,Sulphur Head Start Center,"1600 W 18th St
# A",Sulphur,OK,73086-2027,(580) 622-6200,"1600 W 18th St
# A Sulphur OK 73086-2027 (580) 622-6200"
The Chickasaw Nation,Carter County,Ardmore Head Start Center,825 Locust St,Ardmore,OK,73401-1317,(580) 223-6276,825 Locust St Ardmore OK 73401-1317 (580) 223-6276
Big Five Community Services,Kingfisher County,Hennessey Head Start,520 Cherokee,Hennessey,OK,73742,(405) 853-4664,520 Cherokee Hennessey OK 73742 (405) 853-4664
Big Five Community Services,Grant County,Medford Early Head Start,407 N 2nd St,Medford,OK,73759-1106,(580) 395-3327,407 N 2nd St Medford OK 73759-1106 (580) 395-3327
Big Five Community Services,Kingfisher County,Hennessey Early Head Start,520 S Cherokee St,Hennessey,OK,73742-1827,(405) 853-4453,520 S Cherokee St Hennessey OK 73742-1827 (405) 853-4453
Big Five Community Services,Garfield County,Enid Park Place,306 W Park Ave,Enid,OK,73701-5644,(580) 234-5656,306 W Park Ave Enid OK 73701-5644 (580) 234-5656
Community Action Project of Tulsa County,Tulsa County,Briarglen,3303 S 121st East Ave,Tulsa,OK,74146-2227,(918) 938-6600,3303 S 121st East Ave Tulsa OK 74146-2227 (918) 938-6600
Community Action Project of Tulsa County,Tulsa County,Rosa Parks ECEC,13804 E 46th Pl,Tulsa,OK,74134-5983,(918) 286-0660,13804 E 46th Pl Tulsa OK 74134-5983 (918) 286-0660
Delaware Tribe of Indians,Washington County,Delaware Child Development,5110 Tuxedo Blvd,Bartlesville,OK,74006-2838,(918) 977-3600,5110 Tuxedo Blvd Bartlesville OK 74006-2838 (918) 977-3600
KI BOIS Community Action Foundation,Sequoyah County,Gans Head Start,Hwy 141 S,Gans,OK,74936,(918) 235-0801,Hwy 141 S Gans OK 74936 (918) 235-0801
KI BOIS Community Action Foundation,Sequoyah County,Roland Head Start,300 Ranger Blvd,Roland,OK,74954-4040,(918) 427-1500,300 Ranger Blvd Roland OK 74954-4040 (918) 427-1500
KI BOIS Community Action Foundation,Sequoyah County,Sallisaw Head Start,603 E Choctaw Ave,Sallisaw,OK,74955-4817,(918) 775-4000,603 E Choctaw Ave Sallisaw OK 74955-4817 (918) 775-4000
KI BOIS Community Action Foundation,Cherokee County,Tahlequah South Head Start,1400 Hensley Dr,Tahlequah,OK,74464-5221,(918) 456-8900,1400 Hensley Dr Tahlequah OK 74464-5221 (918) 456-8900
KI BOIS Community Action Foundation,Cherokee County,Tenkiller Head Start,26106 E 863 Rd,Welling,OK,74471-2273,(918) 457-5700,26106 E 863 Rd Welling OK 74471-2273 (918) 457-5700
KI BOIS Community Action Foundation,McIntosh County,Checotah Head Start,214 SE 2nd St,Checotah,OK,74426-4004,(918) 473-5272,214 SE 2nd St Checotah OK 74426-4004 (918) 473-5272
KI BOIS Community Action Foundation,Cherokee County,Keys Head Start,19061 E 840 Rd,Park Hill,OK,74451-4105,(918) 575-1084,19061 E 840 Rd Park Hill OK 74451-4105 (918) 575-1084
KI BOIS Community Action Foundation,Sequoyah County,Vian Head Start,100 Victory Lane,Vian,OK,74962,(918) 773-5449,100 Victory Lane Vian OK 74962 (918) 773-5449
KI BOIS Community Action Foundation,Sequoyah County,Liberty Head Start,476490 E 1060 Rd,Muldrow,OK,74948-5159,(918) 427-5980,476490 E 1060 Rd Muldrow OK 74948-5159 (918) 427-5980
KI BOIS Community Action Foundation,Cherokee County,Briggs Head Start,17210 S 569 Rd,Tahlequah,OK,74464-1812,(918) 207-1188,17210 S 569 Rd Tahlequah OK 74464-1812 (918) 207-1188
KI BOIS Community Action Foundation,Sequoyah County,Muldrow Head Start,301 S Main St,Muldrow,OK,74948-4721,(918) 427-3888,301 S Main St Muldrow OK 74948-4721 (918) 427-3888
KI BOIS Community Action Foundation,Cherokee County,Tahlequah West Head Start,17200 N Bryant Rd,Tahlequah,OK,74464-1393,(918) 456-5050,17200 N Bryant Rd Tahlequah OK 74464-1393 (918) 456-5050
KI BOIS Community Action Foundation,Adair County,Westville Head Start,RR 2 Box 715,Westville,OK,74965-9410,(918) 723-3900,RR 2 Box 715 Westville OK 74965-9410 (918) 723-3900
KI BOIS Community Action Foundation,Cherokee County,Woodall Head Start,14090 W 835 Rd,Tahlequah,OK,74464-1415,(918) 207-0621,14090 W 835 Rd Tahlequah OK 74464-1415 (918) 207-0621
KI BOIS Community Action Foundation,,Marble City Head Start,95266 S 4610,Marble City,OK,74645,(918) 235-0833,95266 S 4610 Marble City OK 74645 (918) 235-0833
KI BOIS Community Action Foundation,Cherokee County,Grandview Head Start,15481 N Jarvis Rd,Tahlequah,OK,74464-0233,(918) 207-0705,15481 N Jarvis Rd Tahlequah OK 74464-0233 (918) 207-0705
KI BOIS Community Action Foundation,Okmulgee County,Ryal,115035 S 39360 Rd,Henryetta,OK,74437,(918) 650-9471,115035 S 39360 Rd Henryetta OK 74437 (918) 650-9471
Community Action Project of Tulsa County,Tulsa County,Briarglen,3303 S 121st East Ave,Tulsa,OK,74146-2227,(918) 938-6600,3303 S 121st East Ave Tulsa OK 74146-2227 (918) 938-6600
Community Action Project of Tulsa County,Tulsa County,Briarglen,3303 S 121st East Ave,Tulsa,OK,74146-2227,(918) 938-6600,3303 S 121st East Ave Tulsa OK 74146-2227 (918) 938-6600
United Community Action Program,Creek County,Drumright Head Start Child Development Center,301 E Stiner St,Drumright,OK,74030-2243,(918) 729-0903,301 E Stiner St Drumright OK 74030-2243 (918) 729-0903
Central Tribes of the Shawnee Area,Lincoln County,Yellow Earth Learning center,930085 S 3562 Rd,Stroud,OK,74079,(405) 915-8906,930085 S 3562 Rd Stroud OK 74079 (405) 915-8906
Big Five Community Services,Pontotoc County,Allen Head Start (Public School),105 N Denver,Allen,OK,74825,(580) 857-2419,105 N Denver Allen OK 74825 (580) 857-2419
CAA of OKC & OK/Canadian Counties,Oklahoma County,Childcare Network,1050 SW 36th Street,Oklahoma City,OK,73109-2923,(405) 634-2083,1050 SW 36th Street Oklahoma City OK 73109-2923 (405) 634-2083
CAA of OKC & OK/Canadian Counties,Oklahoma County,North Highland Elementary,8400 N Robinson Ave,Oklahoma City,OK,73114-3325,(405) 587-6250,8400 N Robinson Ave Oklahoma City OK 73114-3325 (405) 587-6250
CAA of OKC & OK/Canadian Counties,Oklahoma County,Spencer Elementary,8900 NE 50th St,Spencer,OK,73084-1411,(405) 587-8600,8900 NE 50th St Spencer OK 73084-1411 (405) 587-8600
CAA of OKC & OK/Canadian Counties,Oklahoma County,Thelma Parks Elementary,1501 NE 30th St,Oklahoma City,OK,73111-4101,(405) 587-4400,1501 NE 30th St Oklahoma City OK 73111-4101 (405) 587-4400
INCA Community Services,Johnston County,TISHOMINGO HEAD START,304 W 7th St,Tishomingo,OK,73460-1209,(580) 371-3680,304 W 7th St Tishomingo OK 73460-1209 (580) 371-3680
INCA Community Services,Murray County,Sulphur HEAD START,1220 W 9th St,Sulphur,OK,73086-3612,(580) 622-5206,1220 W 9th St Sulphur OK 73086-3612 (580) 622-5206
Sunbeam Family Services,Oklahoma County,Southwest Child Development Center,830 SW 31st St,Oklahoma City,OK,73109-2419,(405) 631-1466,830 SW 31st St Oklahoma City OK 73109-2419 (405) 631-1466
Sunbeam Family Services,Oklahoma County,Little Hearts Learning Center,913 NW 92nd St,Oklahoma City,OK,73114-2703,(405) 879-4266,913 NW 92nd St Oklahoma City OK 73114-2703 (405) 879-4266
Sunbeam Family Services,Oklahoma County,"U.S Grant High School, OKCPS, Little Generals Child Care Center",5016 S Pennsylvania Ave,Oklahoma City,OK,73119-4932,(405) 774-3727,5016 S Pennsylvania Ave Oklahoma City OK 73119-4932 (405) 774-3727
Sunbeam Family Services,Oklahoma County,Educare Oklahoma City,500 SE Grand Blvd,Oklahoma City,OK,73129-4948,(405) 605-8232,500 SE Grand Blvd Oklahoma City OK 73129-4948 (405) 605-8232
Sunbeam Family Services,Oklahoma County,"Tony Reyes Bilingual Child Development Center, LCDA",5716 S Western Ave,Oklahoma City,OK,73109-4515,(405) 236-4667,5716 S Western Ave Oklahoma City OK 73109-4515 (405) 236-4667
Community Action Project of Tulsa County,Tulsa County,PLAY HARD / LEARNING + FITNESS,8730 E Skelly Dr,Tulsa,OK,74129-3422,(918) 576-6788,8730 E Skelly Dr Tulsa OK 74129-3422 (918) 576-6788
Big Five Community Services,Canadian County,Mustang Head Start,451 N Clear Springs Rd,Mustang,OK,73064-1520,(405) 256-6912,451 N Clear Springs Rd Mustang OK 73064-1520 (405) 256-6912
Cherokee Nation,Cherokee County,Children's Village,16944 W Cherokee,Tahlequah,OK,74464-5539,(918) 453-5757,16944 W Cherokee Tahlequah OK 74464-5539 (918) 453-5757
Cherokee Nation,Cherokee County,Children's Village,16944 W Cherokee,Tahlequah,OK,74464-5539,(918) 453-5757,16944 W Cherokee Tahlequah OK 74464-5539 (918) 453-5757
Delaware Tribe of Indians,Rogers County,Bright Beginnings,2550 Holly Rd,Claremore,OK,74017-8514,(918) 342-6100,2550 Holly Rd Claremore OK 74017-8514 (918) 342-6100
Native American Coalition of Tulsa,Tulsa County,NACT Head Start West Campus,4935 S Union Ave,Tulsa,OK,74107-7839,(918) 446-7939,4935 S Union Ave Tulsa OK 74107-7839 (918) 446-7939
Iowa Tribe of Oklahoma,Payne County,Tah-Je Do-Weh Che Child Development,335164 E 750 Rd,Perkins,OK,74059-3276,(405) 547-5826,335164 E 750 Rd Perkins OK 74059-3276 (405) 547-5826
INCA Community Services,Atoka County,Atoka Head Start #1--Elementary School,1680 S Greathouse Drive,Atoka,OK,74525,(580) 889-6611,1680 S Greathouse Drive Atoka OK 74525 (580) 889-6611
CDI HS/Multi-State Migrant and Seasonal,Caddo County,CDI HS MS - OK - ANADARKO,301 W Broadway St,Anadarko,OK,73005-2421,(405) 400-8224,301 W Broadway St Anadarko OK 73005-2421 (405) 400-8224
CDI HS/Multi-State Migrant and Seasonal,Cherokee County,CDI HS MS - OK - Tahlequah,"351 Academy St
Ste D",Tahlequah,OK,74464-2660,(918) 236-5487,"351 Academy St
Ste D Tahlequah OK 74464-2660 (918) 236-5487"
KI BOIS Community Action Foundation,Le Flore County,LEFLORE,100 S Booth,Leflore,OK,74966,(918) 753-2284,100 S Booth Leflore OK 74966 (918) 753-2284
Big Five Community Services,Harper County,Laverne Early Head Start,202 S Kansas,Laverne,OK,73848,(580) 921-7701,202 S Kansas Laverne OK 73848 (580) 921-7701
Community Action Resource and Development,Washington County,C.A.R.D. Dewey Head Start,414 N Sequoyah Ave,Dewey,OK,74029-2028,(918) 534-1144,414 N Sequoyah Ave Dewey OK 74029-2028 (918) 534-1144
Community Action Resource and Development,Wagoner County,C.A.R.D. Wagoner I-2 Head Start,108 N Moss Ave,Wagoner,OK,74467-4314,(918) 798-3351,108 N Moss Ave Wagoner OK 74467-4314 (918) 798-3351
Community Action Resource and Development,Osage County,Bartlesville Early Learning Center,513 S Quapaw Ave,Bartlesville,OK,74003-4331,(918) 337-9355,513 S Quapaw Ave Bartlesville OK 74003-4331 (918) 337-9355
Community Action Resource and Development,Rogers County,C.A.R.D. Catoosa Spunky 1-2 Head Start,2607 N Highway 66,Catoosa,OK,74015-2323,(918) 266-6161,2607 N Highway 66 Catoosa OK 74015-2323 (918) 266-6161
Community Action Resource and Development,Washington County,C.A.R.D. Bartlesville East II Head Start,3618 Tuxedo Blvd,Bartlesville,OK,74006-2329,(918) 333-0776,3618 Tuxedo Blvd Bartlesville OK 74006-2329 (918) 333-0776
Community Action Resource and Development,Osage County,C.A.R.D. Bartlesville West I & II Head Start,401 SW Cass Ave,Bartlesville,OK,74003-3126,(918) 336-6744,401 SW Cass Ave Bartlesville OK 74003-3126 (918) 336-6744
Community Action Resource and Development,Rogers County,C.A.R.D. Catoosa  Head Start Public,2000 S Cherokee St,Catoosa,OK,74015-3232,(918) 266-8643,2000 S Cherokee St Catoosa OK 74015-3232 (918) 266-8643
Community Action Resource and Development,Wagoner County,C.A.R.D. Coweta I-2 Head Start,211 S Broadway,Coweta,OK,74429-4103,(918) 486-6656,211 S Broadway Coweta OK 74429-4103 (918) 486-6656
Community Action Resource and Development,Rogers County,C.A.R.D. Claremore I - 2 Head Start,1701 N Lynn Riggs Blvd,Claremore,OK,74017-3056,(918) 342-8996,1701 N Lynn Riggs Blvd Claremore OK 74017-3056 (918) 342-8996
Community Action Resource and Development,Rogers County,C.A.R.D. Chelsea Head Start,6205 Hwy 28,Chelsea,OK,74016-2080,(918) 789-2984,6205 Hwy 28 Chelsea OK 74016-2080 (918) 789-2984
Community Action Resource and Development,Mayes County,C.A.R.D. Locust Grove  Head Start,695 E Joe Koelsch Dr,Locust Grove,OK,74352-2061,(918) 479-5233,695 E Joe Koelsch Dr Locust Grove OK 74352-2061 (918) 479-5233
Community Action Resource and Development,Osage County,Bartlesville Early Learning Center,513 S Quapaw Ave,Bartlesville,OK,74003-4331,(918) 337-9355,513 S Quapaw Ave Bartlesville OK 74003-4331 (918) 337-9355
Community Action Resource and Development,Washington County,C.A.R.D. Bartlesville East I Head Start,117 N Cholwell Ave,Bartlesville,OK,74006-1602,(918) 335-3000,117 N Cholwell Ave Bartlesville OK 74006-1602 (918) 335-3000
Community Action Resource and Development,Tulsa County,CARD Broken Arrow Early Head Start,411 W New Orleans Street,Broken Arrow,OK,74011-2218,(918) 451-7113,411 W New Orleans Street Broken Arrow OK 74011-2218 (918) 451-7113
Community Action Resource and Development,Mayes County,Pryor South EHS,4201 Armin Rd,Pryor,OK,74361-3311,(918) 825-2240,4201 Armin Rd Pryor OK 74361-3311 (918) 825-2240
Community Action Resource and Development,Mayes County,C.A.R.D. Pryor Central I-2 Head Start,708 SE 1st St,Pryor,OK,74361-4616,(918) 825-4582,708 SE 1st St Pryor OK 74361-4616 (918) 825-4582
Community Action Resource and Development,Wagoner County,Porter Head Start,125 S Main,Porter,OK,74454,(918) 483-5231,125 S Main Porter OK 74454 (918) 483-5231
Community Action Resource and Development,Tulsa County,Southside Head Start,509 W Houston St,Broken Arrow,OK,74012-5348,(918) 258-3464,509 W Houston St Broken Arrow OK 74012-5348 (918) 258-3464
Community Action Resource and Development,Nowata County,Nowata A-Z learning center,100 Lanape Rd,Nowata,OK,74048,(918) 273-9105,100 Lanape Rd Nowata OK 74048 (918) 273-9105
Community Action Resource and Development,Mayes County,C.A.R.D. Pryor Central I-2 Head Start,708 SE 1st St,Pryor,OK,74361-4616,(918) 825-7172,708 SE 1st St Pryor OK 74361-4616 (918) 825-7172
Community Action Resource and Development,Rogers County,C.A.R.D. Catoosa Spunky 1-2 Head Start,2607 N Highway 66,Catoosa,OK,74015-2323,(918) 266-6624,2607 N Highway 66 Catoosa OK 74015-2323 (918) 266-6624
Community Action Resource and Development,Wagoner County,C.A.R.D. Wagoner I-2 Head Start,108 N Moss Ave,Wagoner,OK,74467-4314,(918) 485-6205,108 N Moss Ave Wagoner OK 74467-4314 (918) 485-6205
Community Action Resource and Development,Mayes County,Pryor South EHS,4201 Armin Rd,Pryor,OK,74361-3311,(918) 825-4601,4201 Armin Rd Pryor OK 74361-3311 (918) 825-4601
Community Action Resource and Development,Tulsa County,Southside Head Start,509 W Houston St,Broken Arrow,OK,74012-5348,(918) 258-3464,509 W Houston St Broken Arrow OK 74012-5348 (918) 258-3464
KI BOIS Community Action Foundation,Sequoyah County,SALLISAW EARLY HEAD START,305 S Walnut St,Sallisaw,OK,74955-5809,(918) 774-0801,305 S Walnut St Sallisaw OK 74955-5809 (918) 774-0801
Little Dixie Community Action Agency,Choctaw County,Boswell I & II,604 7th Street,Boswell,OK,74727,(580) 566-2729,604 7th Street Boswell OK 74727 (580) 566-2729
Little Dixie Community Action Agency,Choctaw County,"Horace Mann I, II & III",400 S K St,Hugo,OK,74743-5816,(580) 326-2161,400 S K St Hugo OK 74743-5816 (580) 326-2161
Little Dixie Community Action Agency,Choctaw County,Ft. Towson,604 W Boston Ave,Fort Towson,OK,74735-5053,(580) 873-2259,604 W Boston Ave Fort Towson OK 74735-5053 (580) 873-2259
Little Dixie Community Action Agency,McCurtain County,"Idabel I, II, & III",1203 SE Quincy St,Idabel,OK,74745-6630,(580) 286-5609,1203 SE Quincy St Idabel OK 74745-6630 (580) 286-5609
Little Dixie Community Action Agency,McCurtain County,Broken Bow I,1008 N Park Dr,Broken Bow,OK,74728-2150,(580) 584-6946,1008 N Park Dr Broken Bow OK 74728-2150 (580) 584-6946
Little Dixie Community Action Agency,Choctaw County,Soper I & II,711 Louis Street,Soper,OK,74759,(580) 345-2535,711 Louis Street Soper OK 74759 (580) 345-2535
Little Dixie Community Action Agency,Choctaw County,Hugo  IV,1119 S 8th St,Hugo,OK,74743-8001,(580) 326-7360,1119 S 8th St Hugo OK 74743-8001 (580) 326-7360
Little Dixie Community Action Agency,Choctaw County,Hugo II,113 W Lowery St,Hugo,OK,74743-6847,(580) 326-3781,113 W Lowery St Hugo OK 74743-6847 (580) 326-3781
Little Dixie Community Action Agency,Pushmataha County,Rattan II & III,100 W Main St,Rattan,OK,74562-7103,(580) 587-2715,100 W Main St Rattan OK 74562-7103 (580) 587-2715
Little Dixie Community Action Agency,McCurtain County,Valliant I & II,311 E Harris St,Valliant,OK,74764-9017,(580) 933-4161,311 E Harris St Valliant OK 74764-9017 (580) 933-4161
Little Dixie Community Action Agency,McCurtain County,Battiest,100 S Main St,Battiest,OK,74722-9800,(580) 241-5210,100 S Main St Battiest OK 74722-9800 (580) 241-5210
Little Dixie Community Action Agency,McCurtain County,Broken Bow III,409 N Broadway St,Broken Bow,OK,74728-2941,(580) 584-6956,409 N Broadway St Broken Bow OK 74728-2941 (580) 584-6956
Little Dixie Community Action Agency,Pushmataha County,Clayton I & II,100 Pine Street,Clayton,OK,74536,(918) 569-7741,100 Pine Street Clayton OK 74536 (918) 569-7741
Little Dixie Community Action Agency,Pushmataha County,Rattan 1,121 State Highway 93,Rattan,OK,74562,(580) 587-2592,121 State Highway 93 Rattan OK 74562 (580) 587-2592
Little Dixie Community Action Agency,McCurtain County,Idabel Early Head Start,1203 SE Quincy St,Idabel,OK,74745-6630,(580) 208-2517,1203 SE Quincy St Idabel OK 74745-6630 (580) 208-2517
Little Dixie Community Action Agency,Pushmataha County,Antlers Early Head Start,611 SW B St,Antlers,OK,74523-3830,(580) 298-6405,611 SW B St Antlers OK 74523-3830 (580) 298-6405
Little Dixie Community Action Agency,Choctaw County,Hugo Early Head Start,107 S 15th St,Hugo,OK,74743-4254,(580) 326-0709,107 S 15th St Hugo OK 74743-4254 (580) 326-0709
Little Dixie Community Action Agency,McCurtain County,Forest Grove I & II,1941 Forest Grove Road,Garvin,OK,74736,(580) 208-2228,1941 Forest Grove Road Garvin OK 74736 (580) 208-2228
Little Dixie Community Action Agency,McCurtain County,Haworth,707 N Elm St,Haworth,OK,74740-5160,(580) 245-2403,707 N Elm St Haworth OK 74740-5160 (580) 245-2403
Little Dixie Community Action Agency,Choctaw County,Swink,500 Jourdan St,Swink,OK,74761,(580) 873-9399,500 Jourdan St Swink OK 74761 (580) 873-9399
Little Dixie Community Action Agency,Pushmataha County,Antlers I & II,609 SW B St,Antlers,OK,74523-3830,(580) 298-2766,609 SW B St Antlers OK 74523-3830 (580) 298-2766
Crossroads Youth & Family Services,Cleveland County,Moore HS/EHS,312 N Janeway Ave,Moore,OK,73160-3918,(405) 912-9993,312 N Janeway Ave Moore OK 73160-3918 (405) 912-9993
Crossroads Youth & Family Services,Cleveland County,CSBI  HS/EHS,1111 E Main St,Norman,OK,73071-5331,(405) 701-2141,1111 E Main St Norman OK 73071-5331 (405) 701-2141
Crossroads Youth & Family Services,Pottawatomie County,Learning Tree HS/EHS - Shawnee,1528 N McKinley Ave,Shawnee,OK,74801-5207,(405) 214-4446,1528 N McKinley Ave Shawnee OK 74801-5207 (405) 214-4446
Crossroads Youth & Family Services,Pottawatomie County,Union Street Head Start/Early Head Start,501 N Union Ave,Shawnee,OK,74801-7057,(405) 214-4323,501 N Union Ave Shawnee OK 74801-7057 (405) 214-4323
Crossroads Youth & Family Services,Pottawatomie County,Neighborhood Head Start,1002 W 7th St,Shawnee,OK,74801-7645,(405) 275-9837,1002 W 7th St Shawnee OK 74801-7645 (405) 275-9837
Crossroads Youth & Family Services,Cleveland County,Moore Head Start,312 N Janeway Ave,Moore,OK,73160-3918,(405) 912-9993,312 N Janeway Ave Moore OK 73160-3918 (405) 912-9993
Crossroads Youth & Family Services,Pottawatomie County,Learning Tree HS - Shawnee,1528 N McKinley Ave,Shawnee,OK,74801-5207,(405) 214-4446,1528 N McKinley Ave Shawnee OK 74801-5207 (405) 214-4446
Crossroads Youth & Family Services,Comanche County,Beginnings Academy,501 NW Woodridge Dr,Lawton,OK,73507-2265,(580) 354-9865,501 NW Woodridge Dr Lawton OK 73507-2265 (580) 354-9865
Crossroads Youth & Family Services,Cleveland County,St Stephens Head Start,1801 W Brooks St,Norman,OK,73069-4235,(405) 360-2124,1801 W Brooks St Norman OK 73069-4235 (405) 360-2124
Crossroads Youth & Family Services,Seminole County,Maud Head Start,310 West Young St,Maud,OK,74854-2017,(405) 374-9085,310 West Young St Maud OK 74854-2017 (405) 374-9085
Crossroads Youth & Family Services,Pottawatomie County,Bethel Head Start,35500 Hardesty Rd,Shawnee,OK,74801-5667,(405) 275-2955,35500 Hardesty Rd Shawnee OK 74801-5667 (405) 275-2955
Crossroads Youth & Family Services,Cleveland County,Noble Head Start/Early Head Start,204 N Main St,Noble,OK,73068-9350,(405) 872-1713,204 N Main St Noble OK 73068-9350 (405) 872-1713
Crossroads Youth & Family Services,Cleveland County,Main Street Head Start/Early Head Start,1333 W Main St,Norman,OK,73069-6864,(405) 292-6440,1333 W Main St Norman OK 73069-6864 (405) 292-6440
Crossroads Youth & Family Services,Cleveland County,Little Axe Head Start,1000 168th Ave NE,Norman,OK,73026-9200,(405) 579-2352,1000 168th Ave NE Norman OK 73026-9200 (405) 579-2352
Crossroads Youth & Family Services,Pottawatomie County,Tecumseh Head Start,515 N 3rd St,Tecumseh,OK,74873-2217,(405) 598-5114,515 N 3rd St Tecumseh OK 74873-2217 (405) 598-5114
Crossroads Youth & Family Services,Comanche County,Midway Head Start,1405 SW 11th St,Lawton,OK,73501-7304,(580) 351-1099,1405 SW 11th St Lawton OK 73501-7304 (580) 351-1099
Crossroads Youth & Family Services,Comanche County,Summit Ridge Early Head Start,501 NE Flower Mound Rd,Lawton,OK,73507-7230,(580) 354-9199,501 NE Flower Mound Rd Lawton OK 73507-7230 (580) 354-9199
Crossroads Youth & Family Services,Comanche County,Education Engine HS/EHS,"2402 SW E Ave
Education Engine",Lawton,OK,73505-7332,(580) 248-0474,"2402 SW E Ave
Education Engine Lawton OK 73505-7332 (580) 248-0474"
Crossroads Youth & Family Services,Pottawatomie County,Treasured Moments EHS,1111 N Kennedy Ave,Shawnee,OK,74801-4713,(405) 214-4986,1111 N Kennedy Ave Shawnee OK 74801-4713 (405) 214-4986
Crossroads Youth & Family Services,Seminole County,Seminole EHS,542 W Strothers Ave,Seminole,OK,74868-3175,(405) 303-2224,542 W Strothers Ave Seminole OK 74868-3175 (405) 303-2224
Crossroads Youth & Family Services,Cleveland County,Moore HS/EHS,312 N Janeway Ave,Moore,OK,73160-3918,(405) 912-9993,312 N Janeway Ave Moore OK 73160-3918 (405) 912-9993
Crossroads Youth & Family Services,Cleveland County,Baby Steps Early Head Start,941 Nebraska St,Norman,OK,73069-6951,(405) 360-2717,941 Nebraska St Norman OK 73069-6951 (405) 360-2717
Crossroads Youth & Family Services,Cleveland County,CSBI  HS/EHS,1111 E Main St,Norman,OK,73071-5331,(405) 701-2141,1111 E Main St Norman OK 73071-5331 (405) 701-2141
Crossroads Youth & Family Services,Pottawatomie County,Learning Tree HS/EHS - Shawnee,1528 N McKinley Ave,Shawnee,OK,74801-5207,(405) 214-4446,1528 N McKinley Ave Shawnee OK 74801-5207 (405) 214-4446
Crossroads Youth & Family Services,Pottawatomie County,Union Street Head Start/Early Head Start,501 N Union Ave,Shawnee,OK,74801-7057,(405) 214-4323,501 N Union Ave Shawnee OK 74801-7057 (405) 214-4323
Crossroads Youth & Family Services,Comanche County,Beginnings Academy,501 NW Woodridge Dr,Lawton,OK,73507-2265,(580) 354-9865,501 NW Woodridge Dr Lawton OK 73507-2265 (580) 354-9865
Crossroads Youth & Family Services,Cleveland County,Noble Head Start/Early Head Start,204 N Main St,Noble,OK,73068-9350,(405) 872-1713,204 N Main St Noble OK 73068-9350 (405) 872-1713
Crossroads Youth & Family Services,Cleveland County,Main Street Head Start/Early Head Start,1333 W Main St,Norman,OK,73069-6864,(405) 292-6440,1333 W Main St Norman OK 73069-6864 (405) 292-6440
Crossroads Youth & Family Services,Comanche County,First Start EHS,2003 NW Lincoln Ave,Lawton,OK,73507-2840,(580) 355-4333,2003 NW Lincoln Ave Lawton OK 73507-2840 (580) 355-4333
Crossroads Youth & Family Services,Comanche County,Childrens Chateau,712 SW E Ave,Lawton,OK,73501-4514,(580) 355-4320,712 SW E Ave Lawton OK 73501-4514 (580) 355-4320
Crossroads Youth & Family Services,Comanche County,Summit Ridge Early Head Start,501 NE Flower Mound Rd,Lawton,OK,73507-7230,(580) 354-9199,501 NE Flower Mound Rd Lawton OK 73507-7230 (580) 354-9199
Crossroads Youth & Family Services,Comanche County,Education Engine HS/EHS,"2402 SW E Ave
Education Engine",Lawton,OK,73505-7332,(580) 248-0474,"2402 SW E Ave
Education Engine Lawton OK 73505-7332 (580) 248-0474"
United Community Action Program,Creek County,Bristow Head Start Child Development Center,715 Country Club Drive,Bristow,OK,74010,(918) 367-9662,715 Country Club Drive Bristow OK 74010 (918) 367-9662
United Community Action Program,Creek County,Sapulpa Head Start,404 S Walnut St,Sapulpa,OK,74066-5337,(918) 224-1083,404 S Walnut St Sapulpa OK 74066-5337 (918) 224-1083
Sunbeam Family Services,Oklahoma County,"Emerson High School, OKCPS, Little Wonders Child Care Center",715 N Walker Ave,Oklahoma City,OK,73102-1225,(405) 228-3242,715 N Walker Ave Oklahoma City OK 73102-1225 (405) 228-3242
Sunbeam Family Services,Oklahoma County,Educare Oklahoma City,500 SE Grand Blvd,Oklahoma City,OK,73129-4948,(405) 605-8232,500 SE Grand Blvd Oklahoma City OK 73129-4948 (405) 605-8232
Sunbeam Family Services,Oklahoma County,"Home-Based Program, Sunbeam Family Services Inc.",616 NW 21st St,Oklahoma City,OK,73103-1899,(405) 605-8232,616 NW 21st St Oklahoma City OK 73103-1899 (405) 605-8232
CAA of OKC & OK/Canadian Counties,Oklahoma County,Edwards Elementary Head Start,1123 NE Grand Blvd,Oklahoma City,OK,73117-5245,(405) 587-3200,1123 NE Grand Blvd Oklahoma City OK 73117-5245 (405) 587-3200
CAA of OKC & OK/Canadian Counties,Oklahoma County,Martin Luther King Elementary Head Start,1201 NE 48th St,Oklahoma City,OK,73111-5819,(405) 587-4000,1201 NE 48th St Oklahoma City OK 73111-5819 (405) 587-4000
Iowa Tribe of Oklahoma,Payne County,Iowa Tribe of Oklahoma Early Head Start,335164 E 750 Rd,Perkins,OK,74059-3276,(405) 547-5826,335164 E 750 Rd Perkins OK 74059-3276 (405) 547-5826
Green Country Behavioral Health Services,Muskogee County,Warner Campus,"1012 5th Ave
Warner Public School",Warner,OK,74469-6900,(1) 918-463,"1012 5th Ave
Warner Public School Warner OK 74469-6900 (1) 918-463"
Green Country Behavioral Health Services,Muskogee County,East Campus,3900 Eufaula Ave,Muskogee,OK,74403-1129,(1) 918-683,3900 Eufaula Ave Muskogee OK 74403-1129 (1) 918-683
Green Country Behavioral Health Services,Muskogee County,Jamie Banks Robertson (JBR),540 S 3rd St,Muskogee,OK,74401-7820,(1) 918-682,540 S 3rd St Muskogee OK 74401-7820 (1) 918-682
Green Country Behavioral Health Services,Muskogee County,Ft. Gibson Campus,"500 Ross Ave
Ft. Gibson Public School",Fort Gibson,OK,74434-8422,(1) 918-478,"500 Ross Ave
Ft. Gibson Public School Fort Gibson OK 74434-8422 (1) 918-478"
Green Country Behavioral Health Services,Muskogee County,Youth Central,301 N 6th St,Muskogee,OK,74401-6008,(1) 918-687,301 N 6th St Muskogee OK 74401-6008 (1) 918-687
Green Country Behavioral Health Services,Muskogee County,Shawnee Campus,2719 Old Shawnee,Muskogee,OK,74403,(1) 918-682,2719 Old Shawnee Muskogee OK 74403 (1) 918-682
Green Country Behavioral Health Services,Muskogee County,Little Okie Academy,1313 N Main St,Muskogee,OK,74401-4445,(918) 360-2355,1313 N Main St Muskogee OK 74401-4445 (918) 360-2355
Green Country Behavioral Health Services,Muskogee County,Haskell Campus,313 Chickasaw Road,Haskell,OK,74436,(918) 482-5441,313 Chickasaw Road Haskell OK 74436 (918) 482-5441
Green Country Behavioral Health Services,Muskogee County,Warner Campus,"1012 5th Ave
Warner Public School",Warner,OK,74469-6900,(1) 918-463,"1012 5th Ave
Warner Public School Warner OK 74469-6900 (1) 918-463"
Green Country Behavioral Health Services,Muskogee County,Ft. Gibson Campus,"500 Ross Ave
Ft. Gibson Public School",Fort Gibson,OK,74434-8422,(1) 918-478,"500 Ross Ave
Ft. Gibson Public School Fort Gibson OK 74434-8422 (1) 918-478"
Green Country Behavioral Health Services,Muskogee County,Youth Central,301 N 6th St,Muskogee,OK,74401-6008,(1) 918-687,301 N 6th St Muskogee OK 74401-6008 (1) 918-687
Big Five Community Services,Garfield County,Summerhill (Collaboration),4619 W Randolph Ave,Enid,OK,73703-3442,(580) 234-6844,4619 W Randolph Ave Enid OK 73703-3442 (580) 234-6844
Big Five Community Services,Garfield County,Turn the Page (Collaboration),1524 E Broadway Ave,Enid,OK,73701-4537,(580) 366-4067,1524 E Broadway Ave Enid OK 73701-4537 (580) 366-4067
Big Five Community Services,Harper County,Little Bison EHS (Collaboration),217 SW 1st street,Buffalo,OK,73834,(580) 735-2930,217 SW 1st street Buffalo OK 73834 (580) 735-2930
Big Five Community Services,Canadian County,Yukon Chisholm Trail HS/EHS,801 W Vandament Ave,Yukon,OK,73099-3876,(405) 350-3180,801 W Vandament Ave Yukon OK 73099-3876 (405) 350-3180
Community Action Development Corporation,Tillman County,Frederick Head Start,521 E Gladstone Ave,Frederick,OK,73542-4437,(580) 335-5644,521 E Gladstone Ave Frederick OK 73542-4437 (580) 335-5644
Community Action Development Corporation,Kiowa County,Hobart Head Start,400B N Randlett St,Hobart,OK,73651-1636,(580) 726-3648,400B N Randlett St Hobart OK 73651-1636 (580) 726-3648
Community Action Development Corporation,Tillman County,Frederick Head Start,521 E Gladstone Ave,Frederick,OK,73542-4437,(580) 335-5644,521 E Gladstone Ave Frederick OK 73542-4437 (580) 335-5644
Community Action Development Corporation,Jefferson County,Waurika Head Start,803 Phillips Ave,Waurika,OK,73573-3422,(580) 228-2810,803 Phillips Ave Waurika OK 73573-3422 (580) 228-2810
Community Action Development Corporation,Tillman County,Grandfield Head Start,416 S Main St,Grandfield,OK,73546-9440,(580) 479-5325,416 S Main St Grandfield OK 73546-9440 (580) 479-5325
Community Action Development Corporation,Washita County,Burns Flat Dill City Head Start,"100 Cimarron Rd
# A",Burns Flat,OK,73624,(580) 562-1776,"100 Cimarron Rd
# A Burns Flat OK 73624 (580) 562-1776"
Community Action Development Corporation,Kiowa County,Hobart Head Start,400B N Randlett St,Hobart,OK,73651-1636,(580) 726-3648,400B N Randlett St Hobart OK 73651-1636 (580) 726-3648
Community Action Development Corporation,Washita County,Sentinel Head Start,114 S 3rd,Sentinel,OK,73664,(580) 393-4303,114 S 3rd Sentinel OK 73664 (580) 393-4303
Community Action Development Corporation,Washita County,Cordell Head Start,511 E Kiowa St,Cordell,OK,73632-6040,(580) 832-2454,511 E Kiowa St Cordell OK 73632-6040 (580) 832-2454
Community Action Development Corporation,Jefferson County,Ringling Head Start,Highway 89 Oak,Ringling,OK,73456,(580) 662-2987,Highway 89 Oak Ringling OK 73456 (580) 662-2987
Community Action Development Corporation,Beckham County,Erick Head Start,611 West Third Street,Erick,OK,73645,(580) 526-3198,611 West Third Street Erick OK 73645 (580) 526-3198
Community Action Development Corporation,Beckham County,Sayre Head Start,400 E Hannah,Sayre,OK,73662,(580) 928-5417,400 E Hannah Sayre OK 73662 (580) 928-5417
Community Action Development Corporation,Roger Mills County,Hammon Head Start,8th and Shockey,Hammon,OK,73650,(580) 473-9110,8th and Shockey Hammon OK 73650 (580) 473-9110
Community Action Development Corporation,Cotton County,Temple Head Start Cener,103 West Texas,Temple,OK,73568,(580) 342-5022,103 West Texas Temple OK 73568 (580) 342-5022
Community Action Development Corporation,Tillman County,Frederick Head Start Center - Public School,213 S 13th St,Frederick,OK,73542-5802,(580) 335-5713,213 S 13th St Frederick OK 73542-5802 (580) 335-5713
Community Action Development Corporation,Kiowa County,Snyder Head Start,Hwy 183 Walnut,Mountain Park,OK,73559,(580) 569-4335,Hwy 183 Walnut Mountain Park OK 73559 (580) 569-4335
Tulsa Educare,Tulsa County,Educare 2-Hawthorne,3420 N Peoria Ave,Tulsa,OK,74106-2000,(918) 508-2250,3420 N Peoria Ave Tulsa OK 74106-2000 (918) 508-2250
Tulsa Educare,Tulsa County,Educare 3-MacArthur,2190 S 67th East Ave,Tulsa,OK,74129-2008,(539) 832-8200,2190 S 67th East Ave Tulsa OK 74129-2008 (539) 832-8200
Tulsa Educare,Tulsa County,Happy Hands Educational Center,8801 S Garnett Rd,Broken Arrow,OK,74012-6002,(918) 893-4800,8801 S Garnett Rd Broken Arrow OK 74012-6002 (918) 893-4800
Delta Community Action Foundation,Garvin County,Pauls Valley  Head Start,500 E Garvin Ave,Pauls Valley,OK,73075-4226,(405) 238-3400,500 E Garvin Ave Pauls Valley OK 73075-4226 (405) 238-3400
Delta Community Action Foundation,McClain County,Purcell Early Learning Center,715 S 4th Ave,Purcell,OK,73080-6422,(405) 527-5551,715 S 4th Ave Purcell OK 73080-6422 (405) 527-5551
Delta Community Action Foundation,Garvin County,Stratford Head Start,241 N Oak,Stratford,OK,74872-4436,(580) 759-2382,241 N Oak Stratford OK 74872-4436 (580) 759-2382
Delta Community Action Foundation,Garvin County,Lindsay Head Start/Early Head Start,14027 E County Road 1518,Lindsay,OK,73052-5404,(405) 756-3513,14027 E County Road 1518 Lindsay OK 73052-5404 (405) 756-3513
Delta Community Action Foundation,McClain County,Blanchard Head Start,401 NE 5th Street,Blanchard,OK,73010,(405) 485-3947,401 NE 5th Street Blanchard OK 73010 (405) 485-3947
Delta Community Action Foundation,Stephens County,Duncan Irving Head Start/ Early Head Start,1200 W Sycamore Ave,Duncan,OK,73533-5023,(580) 255-5571,1200 W Sycamore Ave Duncan OK 73533-5023 (580) 255-5571
Delta Community Action Foundation,Stephens County,Comanche Head Start,1030 Ash Ave,Comanche,OK,73529-2636,(580) 439-2900,1030 Ash Ave Comanche OK 73529-2636 (580) 439-2900
Delta Community Action Foundation,McClain County,Purcell Pre-K collaboration,809 N 9th Ave,Purcell,OK,73080-2029,(405) 527-2146,809 N 9th Ave Purcell OK 73080-2029 (405) 527-2146
Delta Community Action Foundation,McClain County,Dibble Head Start,100 Main Street,Dibble,OK,73031,(405) 344-7295,100 Main Street Dibble OK 73031 (405) 344-7295
Delta Community Action Foundation,Stephens County,Marlow Head Start/Chatterbox Child Care,503 E Main St,Marlow,OK,73055-3602,(580) 658-1000,503 E Main St Marlow OK 73055-3602 (580) 658-1000
Delta Community Action Foundation,Garvin County,Pauls Valley @The Corner,309 E Charles Ave,Pauls Valley,OK,73075-4201,(405) 207-9013,309 E Charles Ave Pauls Valley OK 73075-4201 (405) 207-9013
Delta Community Action Foundation,Garvin County,Whitebead Head Start,16476 N County Road 3200,Pauls Valley,OK,73075-8601,(405) 238-3021,16476 N County Road 3200 Pauls Valley OK 73075-8601 (405) 238-3021
Delta Community Action Foundation,McClain County,Purcell Early Learning Center,715 S 4th Ave,Purcell,OK,73080-6422,(405) 527-5551,715 S 4th Ave Purcell OK 73080-6422 (405) 527-5551
Delta Community Action Foundation,Garvin County,Lindsay Head Start/Early Head Start,14027 E County Road 1518,Lindsay,OK,73052-5404,(405) 756-3513,14027 E County Road 1518 Lindsay OK 73052-5404 (405) 756-3513
Delta Community Action Foundation,Stephens County,Duncan Irving Head Start/ Early Head Start,1200 W Sycamore Ave,Duncan,OK,73533-5023,(580) 255-5571,1200 W Sycamore Ave Duncan OK 73533-5023 (580) 255-5571
Delta Community Action Foundation,Garvin County,Pauls Valley @The Corner,309 E Charles Ave,Pauls Valley,OK,73075-4201,(405) 207-9013,309 E Charles Ave Pauls Valley OK 73075-4201 (405) 207-9013
Green Country Behavioral Health Services,Muskogee County,Hilldale Public Schools,313 E Peak Blvd,Muskogee,OK,74403-8515,(918) 683-0273,313 E Peak Blvd Muskogee OK 74403-8515 (918) 683-0273
Green Country Behavioral Health Services,Muskogee County,Hilldale Public Schools,313 E Peak Blvd,Muskogee,OK,74403-8515,(918) 683-0273,313 E Peak Blvd Muskogee OK 74403-8515 (918) 683-0273
Green Country Behavioral Health Services,Muskogee County,Haskell Campus,313 Chickasaw Road,Haskell,OK,74436,(918) 482-5441,313 Chickasaw Road Haskell OK 74436 (918) 482-5441
Kickapoo Tribe of Oklahoma,Pottawatomie County,Kickapoo Head Start,105365 S Highway 102,McLoud,OK,74851-3051,(405) 964-3676,105365 S Highway 102 McLoud OK 74851-3051 (405) 964-3676
Northeast Oklahoma Community Action Agency,Delaware County,Education Station,856 E Melton Drive,Jay,OK,74346,(918) 253-6399,856 E Melton Drive Jay OK 74346 (918) 253-6399
Northeast Oklahoma Community Action Agency,Cherokee County,Henry Lee Doublehead CDC,18771 W Keetoowah Circle,Tahlequah,OK,74464,(918) 871-2799,18771 W Keetoowah Circle Tahlequah OK 74464 (918) 871-2799
Northeast Oklahoma Community Action Agency,Delaware County,Kids Company,119 W 7th St,Grove,OK,74344-3425,(918) 787-7990,119 W 7th St Grove OK 74344-3425 (918) 787-7990
Community Action Project of Tulsa County,Tulsa County,Rosa Parks ECEC,13804 E 46th Pl,Tulsa,OK,74134-5983,(918) 286-0660,13804 E 46th Pl Tulsa OK 74134-5983 (918) 286-0660
Little Dixie Community Action Agency,Choctaw County,Cabbage Patch (Formerly Giggle Time) EHS-CC,305 N F St,Hugo,OK,74743-3229,(580) 326-8286,305 N F St Hugo OK 74743-3229 (580) 326-8286
Little Dixie Community Action Agency,Choctaw County,Turner Learning Center EHS-CC,702 E Central St,Hugo,OK,74743-8036,(580) 326-7343,702 E Central St Hugo OK 74743-8036 (580) 326-7343
Little Dixie Community Action Agency,McCurtain County,The Learning Tree EHS-CC,1805 S Central Ave,Idabel,OK,74745-7914,(580) 286-9123,1805 S Central Ave Idabel OK 74745-7914 (580) 286-9123
Little Dixie Community Action Agency,McCurtain County,Early Learning Center - Broken Bow EHS-CC,1008 N Park Dr,Broken Bow,OK,74728-2150,(580) 584-9801,1008 N Park Dr Broken Bow OK 74728-2150 (580) 584-9801
Little Dixie Community Action Agency,McCurtain County,Early Learning Center-Idabel EHS-CC,1203 SE Quincy St,Idabel,OK,74745-6630,(580) 208-2517,1203 SE Quincy St Idabel OK 74745-6630 (580) 208-2517
Little Dixie Community Action Agency,Choctaw County,Early Learning Center-Swink EHS-CC,500 Jourdan St,Swink,OK,74761,(580) 873-9336,500 Jourdan St Swink OK 74761 (580) 873-9336
Little Dixie Community Action Agency,Pushmataha County,Early Learning Center-Antlers EHS-CC,611 SW B St,Antlers,OK,74523-3830,(580) 298-6405,611 SW B St Antlers OK 74523-3830 (580) 298-6405
Little Dixie Community Action Agency,Choctaw County,Early Learning Center-Hugo EHS-CC,113 W Lowery St,Hugo,OK,74743-6847,(580) 326-3781,113 W Lowery St Hugo OK 74743-6847 (580) 326-3781
Sunbeam Family Services,Oklahoma County,Childcare Network #204,1050 SW Grand Blvd,Oklahoma City,OK,73109-2923,(405) 634-1260,1050 SW Grand Blvd Oklahoma City OK 73109-2923 (405) 634-1260
Sunbeam Family Services,Oklahoma County,"Tony Reyes Bilingual Child Development Center, LCDA",420 SW 10th St,Oklahoma City,OK,73109-5610,(405) 236-4667,420 SW 10th St Oklahoma City OK 73109-5610 (405) 236-4667
Sunbeam Family Services,Oklahoma County,Linwood Early Learning Center,3034 NW 17th St,Oklahoma City,OK,73107-3904,(405) 947-7722,3034 NW 17th St Oklahoma City OK 73107-3904 (405) 947-7722
Sunbeam Family Services,Oklahoma County,Children's Lighthouse I,540 N Council Rd,Oklahoma City,OK,73127-4934,(405) 789-0661,540 N Council Rd Oklahoma City OK 73127-4934 (405) 789-0661
Sunbeam Family Services,Oklahoma County,OKCCAA Avery Chapel Child Care,1425 N Kelham Ave,Oklahoma City,OK,73117-3635,(405) 424-1068,1425 N Kelham Ave Oklahoma City OK 73117-3635 (405) 424-1068
Sunbeam Family Services,Oklahoma County,OKCCAA Santa Fe South Early Childhood Center,2222 SW 44th St,Oklahoma City,OK,73119-3526,(405) 600-1986,2222 SW 44th St Oklahoma City OK 73119-3526 (405) 600-1986
Sunbeam Family Services,Oklahoma County,OKCCAA Oak Grove HS/EHS,3301 SW 17th St,Oklahoma City,OK,73108-4000,(405) 685-2277,3301 SW 17th St Oklahoma City OK 73108-4000 (405) 685-2277
Sunbeam Family Services,Oklahoma County,OKCCAA Kiddie Village HS/EHS,801 NE 2nd St,Oklahoma City,OK,73104-6613,(405) 235-9833,801 NE 2nd St Oklahoma City OK 73104-6613 (405) 235-9833
Sunbeam Family Services,Oklahoma County,OKCCAA West Oak HS/EHS,2100 S Everest Ave,Oklahoma City,OK,73129-6348,(405) 677-8437,2100 S Everest Ave Oklahoma City OK 73129-6348 (405) 677-8437
Sunbeam Family Services,Oklahoma County,Educare Oklahoma City,500 SE Grand Blvd,Oklahoma City,OK,73129-4948,(405) 605-8232,500 SE Grand Blvd Oklahoma City OK 73129-4948 (405) 605-8232
Green Country Behavioral Health Services,Muskogee County,New Beginnings Child Care,410 Girard St,Muskogee,OK,74401-4456,(918) 684-4011,410 Girard St Muskogee OK 74401-4456 (918) 684-4011
Community Action Development Corporation,Washita County,Burns Flat Dill City Head Start,"100 Cimarron Rd
# A",Burns Flat,OK,73624,(580) 562-1776,"100 Cimarron Rd
# A Burns Flat OK 73624 (580) 562-1776"
Community Action Development Corporation,Washita County,Cordell Head Start,511 E Kiowa St,Cordell,OK,73632-6040,(580) 832-2454,511 E Kiowa St Cordell OK 73632-6040 (580) 832-2454
